,ecole,longitude,latitude,postalcode
0,AgroParisTech Grignon,1.9350125,48.846946,78850
1,Montpellier Sup Agro (cursus agronome),3.854877,43.61728160000001,34060
2,Montpellier Sup Agro (cursus SAADS),3.854877,43.61728160000001,34060
3,Agrocampus Ouest (cursus ingénieur agronome),-1.7102321,48.1264244,35000
4,ENSAT Toulouse,1.493193,43.53505699999999,31326
5,ENSAIA Nancy,6.147378,48.651838,54505
6,Agrocampus Ouest (cursus ingénieur en horticulture et en paysage),-1.7102321,48.1264244,35000
7,Agrosup Dijon (Cursus Agroalimentaire),5.04148,47.322047,21000
8,ENITAB Bordeaux (Fonctionnaire),-0.6063803,44.7931179,33170
9,ENITAB Bordeaux (Civil),-0.6063803,44.7931179,33170
10,VetAgro Sup Clermont-Ferrand (Fonctionnaire),3.1762589,45.7758304,63370
11,VetAgro Sup Clermont-Ferrand (Civil),3.1762589,45.7758304,63370
12,Oniris Nantes (cursus agroalimentaire),-1.5227746,47.2891843,44300
13,Agrosup Dijon (Cursus Agronome) civil,5.04148,47.322047,21000
14,Agrosup Dijon (Cursus agronome) fonctionnaire,5.04148,47.322047,21000
15,Concours commun A BIO,,,
16,ENV Alfort,2.4240293,48.81274190000001,94700
17,VetAgro Sup Lyon,4.7072663,45.7921752,69280
18,Oniris Nantes (cursus vétérinaire),-1.5227746,47.2891843,44300
19,ENV Toulouse,1.3841702,43.6019953,31300
20,Concours commun A ENV,1.3841702,43.6019953,31300
21,ESPCI ParisTech,2.3475905,48.8412746,75005
22,Chimie ParisTech,2.3435537,48.84421,75005
23,ENSC Montpellier,3.8654683,43.6347823,34090
24,ENSC Lille,3.146917,50.6095325,59652
25,ENSCBP Bordeaux-Biologie-Alimentation,-0.6111213,44.8011924,33607
26,Concours commun A PC BIO,,,
27,ENS Ulm,2.3440392,48.8418322,75005
28,ENS Lyon,4.8334497,45.7332787,69342
29,ENS Cachan,2.1649417,48.7123564,91190
30,ENGEES Strasbourg Civil (étudiant),7.758007800000001,48.5849696,67070
31,ENGEES Strasbourg Fonctionnaire,7.758007800000001,48.5849696,67070
32,concours ENGEES G2E-BCPST,7.758007800000001,48.5849696,67070
33,ENSG Nancy,6.1492879,48.6534173,54518
34,ENSIL Limoges EE,1.2952454,45.86102899999999,87280
35,ENTPE Vaulx en Velin Civil,4.9223494,45.77860829999999,69120
36,ENTPE Vaulx en Velin Fonctionnaire,4.9223494,45.77860829999999,69120
37,EOST Strasbourg,7.7629271,48.5796176,67084
38,ENSI Poitiers Eau et Genie Civil,0.3832459,46.5688039,86022
39,"Environnement, Aménagement, Génie civil, Développement durable-Polytech Paris-UPMC",2.3577864,48.8462524,75005
40,"Environnement, Aménagement, Génie civil, Développement durable-Polytech Orléans",1.9390229,47.8440593,45100
41,ENGEES Strasbourg Civil (apprenti),7.758007800000001,48.5849696,67070
42,ENSTIB Epinal,6.4653358,48.194249,88000
43,ESBS Strasbourg,7.7385873,48.5258824,67400
44,ESIL Marseille Biotech,5.4440806,43.2332509,13009
45,ESIX Normandie-Génie Agroalimentaire,-1.6442149,49.6343438,50130
46,ESMISAB Brest,-4.567785199999999,48.3606351,29280
47,ENSTBB Bordeaux,-0.6070843,44.8226969,33000
48,ISBS,2.4539208,48.7951184,94000
49,ISIFC Besançon,5.996239999999999,47.2505339,25000
50,"Biotechnologies, Agroalimentaire, Prévention, Ingénierie pour la santé-Polytech Clermont-Ferrand",3.1092253,45.7608031,63100
51,"Génie Civil, Bâtiment, Géosciences-Polytech Grenoble",5.752253,45.1846156,38400
52,"Ingénierie pour la santé, Génie biomédical-Polytech Grenoble",5.752253,45.1846156,38400
53,"Biotechnologies, Agroalimentaire, Prévention, Ingénierie pour la santé-Polytech Lille",3.1370078,50.6078394,59655
54,"Aménagement, Eau et Environnement-Polytech Montpellier",3.8625953,43.6327433,34095
55,"Génie biologique, Agroalimentaire, Biotechnologies-Polytech Montpellier",3.8625953,43.6327433,34095
56,"Génie biologique, Agroalimentaire, Biotechnologies-Polytech Nice",7.0717782,43.6155521,06410
57,"Aménagement, Eau et Environnement-Polytech Nice",7.0717782,43.6155521,06410
58,"Génie biologique, Agroalimentaire, Biotechnologies-Polytech Paris-UPMC",2.3577864,48.8462524,75005
59,"Environnement, Aménagement, Génie civil, Développement durable-Polytech Tours",0.6877878,47.3645904,37200
60,Concours commun A ARCH BIO,2.3476575,48.8397733,75005
61,ECOLE POLYTECHNIQUE,2.2112917,48.7142971,91120
62,CENTRALE PARIS,2.1661629,48.709445,91190
63,SUPELEC-Campus Gif,2.1668424,48.71018309999999,91190
64,SUPELEC-Campus Metz,6.220958,49.10323289999999,57070
65,SUPELEC-Campus Rennes,-1.6234012,48.1252316,35510
66,Supélec,2.1661629,48.709445,91190
67,CENTRALE LYON,4.766499899999999,45.7825983,69134
68,Institut d'optique Graduate School (SupOptique),2.2034927,48.71373999999999,91120
69,CENTRALE LILLE,3.1365135,50.6068158,59650
70,CENTRALE NANTES,-1.5495565,47.24833839999999,44300
71,CENTRALE MARSEILLE,5.4371117,43.3424593,13013
72,ENSIIE Evry,2.4322721,48.6267007,91000
73,IFMA Clermont-Ferrand,3.1127728,45.7576185,63170
74,ISMANS Le Mans,0.157249,48.019386,72000
75,ESIX Normandie-Génie et Sûreté des Systèmes Industriels,-1.6442149,49.6343438,50130
76,MINES ParisTech,2.339138,48.8455886,75272
77,MINES de NANCY,6.1702775,48.6729956,54042
78,MINES de SAINT-ETIENNE,4.408427,45.4225457,42100
79,PONTS ParisTech,2.588727,48.840563,77420
80,SUPAERO (ISAE) Toulouse,1.474008,43.5655361,31400
81,ENSTA ParisTech,2.2180501,48.7107339,91120
82,TELECOM ParisTech cursus Paris,2.3464188,48.8262943,75013
83,TELECOM ParisTech cursus Sophia,2.2004477,48.7128764,91120
84,TELECOM BRETAGNE,2.2003541,48.712841,91120
85,Concours Commun Mines Ponts TSI,,,
86,TELECOM SudParis-cursus Evry,2.4433504,48.6249477,91000
87,TELECOM St Etienne,4.387829099999999,45.4523598,42000
88,ENSP Strasbourg-TIC et Santé,7.7377182,48.5254976,67400
89,ENSSAT Lannion,-3.4624262,48.729673,22305
90,ESIAL Nancy,6.155318,48.6691262,54602
91,Mines St Etienne ISMIN Gardanne,5.4717363,43.4525982,13120
92,Arts et Métiers ParisTech,2.3582236,48.8330427,75013
93,ENSEA Cergy,2.0722879,49.0392814,95000
94,ESIEE Amiens,2.2919749,49.8995592,80080
95,ESIEE Paris,2.5836143,48.8398086,93160
96,ARTS ET MÉTIERS ParisTech,2.3582236,48.8330427,75013
97,ENSGSI Nancy,6.1936569,48.6949818,54000
98,ENSMM Besançon,5.9936082,47.2512183,25000
99,ENSI Bourges STI,2.398782,47.081012,18000
100,ENSI Bourges MRI,2.398782,47.081012,18000
101,ENSEIRB-MATMECA Bordeaux Electronique,-0.6051667,44.80663759999999,33400
102,ENSEIRB-MATMECA Bordeaux Informatique,-0.6051667,44.80663759999999,33400
103,ENSEIRB-MATMECA Bordeaux Télecom.,-0.6051667,44.80663759999999,33400
104,ENSTA Bretagne (ex ENSIETA) Civil,-4.4720707,48.41908,29200
105,ENSICAEN Electronique et Physique Appliquée,-0.367627,49.214099,14000
106,ISIMA Clermont-Ferrand,3.1104272,45.7590113,63178
107,Grenoble INP-Pagora,5.7757511,45.1960652,38402
108,Grenoble INP-ENSE3,5.7031278,45.2029611,38031
109,CPE LYON Electronique,4.8697515,45.7841601,69100
110,ENSEM Nancy,6.1473745,48.6518424,54500
111,SUPMECA Paris,2.3325672,48.9195721,93400
112,ENSMA Poitiers,0.3613693,46.66132520000001,86360
113,ENSI Poitiers Energie,0.3832459,46.5688039,86022
114,ENSP Strasbourg,7.7377182,48.5254976,67400
115,SUPMECA Toulon,2.3325672,48.9195721,93400
116,ENSEEIHT Toulouse Electronique,1.455808,43.6021194,31000
117,ENSEEIHT Toulouse Génie Electrique,1.455808,43.6021194,31000
118,ENSICA (ISAE) Toulouse,1.4664576,43.6146488,31500
119,ENSIAME Valenciennes Informatique et Management des systèmes,3.5147174,50.3248476,59300
120,ENSIAME Valenciennes Méca Energ.,3.5147174,50.3248476,59300
121,ENSIAME Valenciennes Mécatronique,3.5147174,50.3248476,59300
122,Concours Commun Polytechnique TSI,,,
123,3IL Limoges,1.2722802,45.8187995,87000
124,EIL Côte d'Opale-Longuenesse (Génie Industriel),2.2604769,50.7344417,62219
125,ENSAIT Roubaix,3.1682748,50.6944887,59100
126,ENSISA Mulhouse Informatique et réseaux,7.310896100000001,47.7290842,68093
127,ENSISA Mulhouse Mécanique,7.310896100000001,47.7290842,68093
128,ENSISA Mulhouse Système et signaux,7.310896100000001,47.7290842,68093
129,ENSISA Mulhouse Textile et Fibres,7.310896100000001,47.7290842,68093
130,ENSISA Mulhouse TSI,7.310896100000001,47.7290842,68093
131,ENSTA Bretagne (ex ENSIETA) Militaire,-4.4720707,48.41908,29200
132,ESIGELEC Rouen,1.0768848,49.3832749,76800
133,ESIREM Dijon Info-élec.,5.073972299999999,47.3121732,21000
134,ESIREM Dijon Mat.,5.073972299999999,47.3121732,21000
135,ESIREM Dijon TSI,5.073972299999999,47.3121732,21000
136,ESTIA Bidart,-1.5511938,43.445714,64210
137,ESTP Paris BAT,2.3174735,48.8889861,75017
138,ESTP Paris MECA-ELEC,2.3522219,48.856614,75004
139,ESTP Paris TOPOGRAPHIE,2.3522219,48.856614,75004
140,ESTP Paris TP,2.3522219,48.856614,75004
141,ESTP Paris,2.3522219,48.856614,75004
142,Ecole des Mines d'Albi,2.178954,43.922508,81000
143,Ecole des Mines d'Alès,4.0896303,44.1327151,30100
144,Ecole des Mines Douai,3.0676659,50.3755213,59500
145,Ecole des Mines Nantes,-1.5208446,47.2822842,44300
146,"Concours des Ecoles des Mines d'Albi, Alès, Douai, Nantes",3.0676659,50.3755213,59500
147,ISAT Nevers-département Concept Car (CC),3.1714703,46.997819,58027
148,ISAT Nevers-département Energétique Propulsion Electronique pour l'Environnement (EP2E),3.1714703,46.997819,58027
149,ISAT Nevers TSI,3.1714703,46.997819,58027
150,ISEP Paris,2.3280245,48.8453227,75006
151,"Environnement, Aménagement, Génie civil, Développement durable-Polytech Annecy-Chambéry",6.1577674,45.91949779999999,74940
152,"Énergie électrique, Systèmes électroniques, informatiques et optiques-Polytech Annecy-Chambéry",6.1577674,45.91949779999999,74940
153,"Mécanique, Énergie, Matériaux, Mécatronique-Polytech Annecy-Chambéry",6.1577674,45.91949779999999,74940
154,"Informatique, Modélisation mathématique, Gestion-Polytech Clermont-Ferrand",3.1092253,45.7608031,63100
155,"Énergie électrique, Systèmes électroniques, informatiques et optiques-Polytech Clermont-Ferrand",3.1092253,45.7608031,63100
156,"Mécanique, Énergie, Matériaux, Mécatronique-Polytech Clermont-Ferrand",3.1092253,45.7608031,63100
157,"Automatique, Robotique, Systèmes industriels-Polytech Grenoble",5.752253,45.1846156,38400
158,Matériaux-Polytech Grenoble,5.752253,45.1846156,38400
159,"Énergie électrique, Systèmes électroniques, informatiques et optiques-Polytech Lille",3.1370078,50.6078394,59655
160,Mécanique-Polytech Lille,3.1370078,50.6078394,59655
161,"Génie Civil, Bâtiment, Géosciences-Polytech Marseille",5.4431033,43.23194669999999,13009
162,"Automatique, Robotique, Systèmes industriels-Polytech Marseille",5.4431033,43.23194669999999,13009
163,"Électronique, Réseaux et télécommunications-Polytech Marseille",5.4431033,43.23194669999999,13009
164,"Énergétique, Thermique-Polytech Marseille",5.4431033,43.23194669999999,13009
165,"Énergie électrique, Systèmes électroniques, informatiques et optiques-Polytech Montpellier",3.8625953,43.6327433,34095
166,Énergie électrique-Polytech Nantes,-1.5158639,47.2819356,44300
167,"Électronique, Réseaux et télécommunications-Polytech Nantes",-1.5158639,47.2819356,44300
168,"Électronique, Réseaux et télécommunications-Polytech Nice",7.0717782,43.6155521,06410
169,"Mécanique, Énergie, Matériaux, Mécatronique-Polytech Orléans",1.9390229,47.8440593,45100
170,"Énergie électrique, Systèmes électroniques, informatiques et optiques-Polytech Orléans",1.9390229,47.8440593,45100
171,"Informatique, Modélisation mathématique, Gestion-Polytech Tours",0.6847464999999999,47.3646921,37200
172,"Mécanique, Énergie, Matériaux, Mécatronique-Polytech Tours",0.6877878,47.3645904,37200
173,"Énergie électrique, Systèmes électroniques, informatiques et optiques-Polytech Tours",0.6847464999999999,47.3646921,37200
174,Reseau Polytech,2.3577864,48.8462524,75005
175,EIL Côte d'Opale-Calais (informatique),1.880568,50.9525945,62100
176,EPITA,2.3628171,48.81566540000001,94270
177,ENS Cachan-Ker Lan,2.1649417,48.7123564,91190
178,ENS Cachan-PSI,2.1649417,48.7123564,91190
179,Concours Commun Mines Ponts PSI,2.3358177,48.8304214,75014
180,CENTRALE MARSEILLE Cycle International,5.4371117,43.3424593,13013
181,ECOLE NAVALE Brest,-4.4246113,48.28053389999999,29160
182,ENSIIE Strasbourg,2.4322721,48.6267007,91000
183,ENSIIE,2.4322721,48.6267007,91000
184,ENSEIRB-MATMECA Bordeaux MATMECA,-0.6051667,44.80663759999999,33400
185,ENSICAEN Informatique,-0.367627,49.214099,14000
186,Grenoble INP-Esisar,4.9137536,44.9172604,26000
187,Grenoble INP-Phelma (Physique Matériaux Procédés),5.710399499999999,45.1949333,38000
188,Grenoble INP-Phelma (Physique Electronique Télécoms),5.710399499999999,45.1949333,38000
189,Grenoble INP-ENSIMAG,5.768265899999999,45.1934574,38400
190,ENSIC Nancy,6.179947200000001,48.69961139999999,54000
191,ENSGTI Pau-Energétique,-0.3644096000000001,43.3194063,64000
192,ENAC Toulouse Civil,1.4830052,43.5642909,31400
193,ENAC Toulouse Fonctionnaire,1.4830052,43.5642909,31400
194,ENSEEIHT Toulouse Hydraulique,1.455808,43.6021194,31000
195,ENSEEIHT Toulouse Informatique et Mathématiques appliquées,1.455808,43.6021194,31000
196,ENSEEIHT Toulouse Télécom.réseaux,1.455808,43.6021194,31000
197,ENSIACET Toulouse Génie des Procédés,1.5010751,43.5548178,31030
198,ENSIACET Toulouse Génie Industriel,1.5010751,43.5548178,31030
199,Concours Commun Polytechnique PSI,2.2112917,48.7142971,91120
200,ECOLE DE L'AIR Pilote,5.1130749,43.6199016,13300
201,ECOLE DE L'AIR Base,5.1130749,43.6199016,13300
202,ECOLE DE L'AIR Méca,5.1130749,43.6199016,13300
203,EEIGM,6.1934152,48.6955015,54000
204,ENSCI Limoges,1.2952454,45.86102899999999,87280
205,ESM Saint-Cyr,-2.1498977,47.94579,56380
206,Grenoble INP-Génie Industriel,5.7175052,45.1908463,38000
207,EISTI Cergy-Pau,2.0697464,49.0350546,95000
208,ENGEES Strasbourg PSI,7.758007800000001,48.5849696,67070
209,ENSISA Mulhouse PSI,7.310896100000001,47.7290842,68093
210,ENTPE Vaulx en Velin Etranger,4.9223494,45.77860829999999,69120
211,EIVP Paris Civil,2.3819219,48.8740846,75019
212,EIVP Paris Fonctionnaire,2.3819219,48.8740846,75019
213,ENSTIM Fonct. Douai,3.0676659,50.3755213,59500
214,TELECOM SudParis-cursus Tunis,2.4433504,48.6249477,91000
215,concours Télécom SudParis PSI,2.4433504,48.6249477,91000
216,Ecole des Mines d'Albi Voie du Concours Mines Ponts,2.178954,43.922508,81000
217,Ecole des Mines d'Alès Voie du Concours Mines Ponts,4.0896303,44.1327151,30100
218,Ecole des Mines Douai Voie du Concours Mines Ponts,3.0676659,50.3755213,59500
219,Ecole des Mines Nantes Voie du Concours Mines Ponts,-1.5208446,47.2822842,44300
220,ESTP,2.3289568,48.7942048,94230
221,"Automatique, Robotique, Systèmes industriels-Polytech Paris-UPMC",2.3577864,48.8462524,75005
222,ENSC Bordeaux,-0.5975148,44.8062267,33400
223,ENSIBS Lorient,-3.396507,47.74767199999999,56100
224,ENSIM Le Mans,0.1575925,48.0189222,72000
225,ESI Reims Packaging,4.0645583,49.2377566,51100
226,ESI Reims Thermique et Energétique,4.0645583,49.2377566,51100
227,ESIL Marseille Biomédical,5.4431891,43.2322616,13288
228,"ESIL Marseille Informatique, réseaux et multimédia",5.4431891,43.2322616,13288
229,ESIL Marseille Mat.,5.4440806,43.2332509,13009
230,ESIR Rennes (ex IFSIC),-1.6364057,48.118086,35042
231,ESIROI,55.49073199999999,-21.3403709,97410
232,ESSTIN Nancy,6.1883149,48.6597371,54519
233,"Environnement, Aménagement, Génie civil, Développement durable-Polytech Clermont-Ferrand",3.1092253,45.7608031,63100
234,"Environnement, Aménagement, Génie civil, Développement durable-Polytech Lille",3.1370078,50.6078394,59655
235,"Environnement, Aménagement, Génie civil, Développement durable-Polytech Nantes",-1.5158639,47.2819356,44300
236,"Génie Civil, Bâtiment, Géosciences-Polytech Nice",7.0717782,43.6155521,06410
237,"Hygiène, Sécurité, Qualité-Polytech Grenoble",5.752253,45.1846156,38400
238,ISEL,-81.7358833,30.3208353,32254
239,ISITV Toulon Ingénierie Marine,6.0117444,43.1362623,83130
240,ISITV Toulon Ingénierie des Matériaux,6.0117444,43.1362623,83130
241,ISITV Toulon Télécommunications,6.0117444,43.1362623,83130
242,ISTIA,11.1858047,42.7800818,58100
243,ISTIL EPU Lyon 1,4.8683428,45.7791677,69100
244,ISTY Versailles,2.2176517,48.7820684,78140
245,Informatique-Polytech Grenoble,5.752253,45.1846156,38400
246,Informatique-Polytech Nantes,-1.5158639,47.2819356,44300
247,Informatique-Polytech Nice,7.0717782,43.6155521,06410
248,"Informatique, Modélisation mathématique, Gestion-Polytech Lille",3.1370078,50.6078394,59655
249,"Mathématiques appliquées, Modélisation-Polytech Nice",7.0717782,43.6155521,06410
250,Matériaux-Polytech Lille,3.1370078,50.6078394,59655
251,Matériaux-Polytech Nantes,-1.5158639,47.2819356,44300
252,Mécanique-Polytech Montpellier,3.8625953,43.6327433,34095
253,"Métrologie, Instrumentation-Polytech Lille",3.1370078,50.6078394,59655
254,Sup Galilée Villetaneuse,2.339919,48.9576333,93430
255,"Énergie électrique, Systèmes électroniques, informatiques et optiques-Polytech Paris-Sud",2.1712321,48.70902239999999,91190
256,"Énergie électrique, Systèmes électroniques, informatiques et optiques-Polytech Paris-UPMC",2.3577864,48.8462524,75005
257,"Énergétique, Thermique-Polytech Montpellier",3.8625953,43.6327433,34095
258,"Énergétique, Thermique-Polytech Nantes",-1.5158639,47.2819356,44300
259,Concours Commun ARCHIMEDE,2.2112917,48.7142971,91120
260,ECE PARIS,2.2864819,48.8517668,75015
261,EFREI Paris,2.3640636,48.7885773,94800
262,EI-ISPA Alençon,0.0587716999999999,48.4442826,61250
263,EIDD Paris,2.382824,48.8267406,75013
264,EIGSI,-1.1544972,46.1397264,17041
265,EIL Côte d'Opale (ex EIPC),1.880568,50.9525945,62100
266,EME,2.5044068,48.7579942,94470
267,ENI Val de Loire-Blois,1.3359475,47.58609209999999,41000
268,ENSIL Limoges ELT,1.2952454,45.86102899999999,87280
269,ENSIL Limoges Matériaux,1.2952454,45.86102899999999,87280
270,ENSIL Limoges Mécatronique,1.2952454,45.86102899999999,87280
271,ESB Nantes,-1.5145104,47.2839402,44000
272,ESIEA Laval,-0.7567847,48.08794779999999,53000
273,ESIEA Paris,2.3784328,48.81446889999999,94200
274,ESIEA Paris-Laval,2.3784328,48.81446889999999,94200
275,ESIGETEL Fontainebleau,2.3640636,48.7885773,94800
276,ESITC Caen,-0.366253,49.2161925,14610
277,ESME Sudria Ivry sur Seine,2.3929998,48.8140771,94200
278,ISIS Castres,2.2691342,43.6247406,81104
279,ECAM Lyon,4.825207499999999,45.7627288,69321
280,ECAM Rennes Louis de Broglie,-1.7430977,48.04685850000001,35170
281,ECAM Strasbourg Europe,7.7057,48.609013,67300
282,EPMI Cergy,2.0750699,49.0316204,95000
283,ESAIP,-0.4973334,47.464054,49124
284,ESEO Angers,-0.5510644,47.4928835,49100
285,HEI,2.2885315,48.8511532,75015
286,ISEN Brest,-4.495553999999999,48.4070554,29200
287,ISEN Lille,3.0487604,50.6342041,59800
288,ISEN Toulon,5.9396605,43.1206202,83000
289,LASALLE BEAUVAIS,1.0730946,49.4674696,76130
290,Concours Commun Mines-Ponts PT,2.3358177,48.8304214,75014
291,ENSG Marne la Vallée Civil,2.5879613,48.8410851,77420
292,Concours Commun Polytechnique PT,2.2112917,48.7142971,91120
293,ENSISA Mulhouse,7.310896100000001,47.7290842,68093
294,ESFF-Sèvres,2.2247254,48.8229484,92310
295,ITECH Lyon,4.7675392,45.7862021,69134
296,ECOLE POLYTECHNIQUE Info.,2.2112917,48.7142971,91120
297,ECOLE POLYTECHNIQUE P&SI,2.2112917,48.7142971,91120
298,ENS Ulm MPI,2.3451689,48.8422058,75005
299,ENS Ulm Info.,2.3451689,48.8422058,75005
300,ENS Cachan MP,2.1649417,48.7123564,91190
301,ENS Cachan-Ker Lan MP,2.1649417,48.7123564,91190
302,Concours ENS Cachan groupe MP,2.1649417,48.7123564,91190
303,ENS Cachan Info.,2.1649417,48.7123564,91190
304,ENS Cachan-Ker Lan Info.,2.1649417,48.7123564,91190
305,Concours ENS Cachan groupe Informatique,2.1649417,48.7123564,91190
306,ENS Lyon MPI,4.8334497,45.7332787,69342
307,ENS Lyon Info.,4.8334497,45.7332787,69342
308,ENSAE ParisTech,2.2076467,48.711006,91120
309,Concours Commun Mines Ponts MP,2.3358177,48.8304214,75014
310,ENSGTI Pau-Génie des Procédés,-0.3644096000000001,43.3194063,64000
311,Concours Commun Polytechnique MP,2.2112917,48.7142971,91120
312,ENGEES Strasbourg MP,7.758007800000001,48.5849696,67070
313,ENSAI Rennes Civil,-1.7417817,48.05062059999999,35170
314,ENSAI Rennes Fonctionnaire (Attaché INSEE),-1.7417817,48.05062059999999,35170
315,ENSISA Mulhouse MP,7.310896100000001,47.7290842,68093
316,concours Télécom SudParis MP,2.4433504,48.6249477,91000
317,Informatique-Polytech Paris-Sud,2.1712321,48.70902239999999,91190
318,"Informatique, Modélisation mathématique, Gestion-Polytech Montpellier",3.8625953,43.6327433,34095
319,Matériaux-Polytech Montpellier,3.8625953,43.6327433,34095
320,ESCOM Compiegne,2.8024088,49.4019571,60200
321,ESPCI ParisTech Etranger,2.3475905,48.8412746,75005
322,ENS Cachan PC,2.1649417,48.7123564,91190
323,Concours Commun Mines Ponts PC,,,
324,Concours Commun Polytechnique PC-Physique,2.2112917,48.7142971,91120
325,ENSCBP Bordeaux-Chimie-Physique,-0.6111213,44.8011924,33607
326,ENSICAEN Mat. et Chimie,-0.367627,49.214099,14000
327,ENSC Clermont-Ferrand,3.1104272,45.7590113,63178
328,CPE LYON Chimie,4.8697515,45.7841601,69100
329,ENSC Mulhouse,7.3127021,47.7324409,68200
330,ENSC Rennes,-1.633959,48.117732,35708
331,ECPM Strasbourg,7.7158292,48.607586,67200
332,ENSIACET Toulouse Génie chimique,1.5010751,43.5548178,31030
333,ENSIACET Toulouse Matériaux,1.5010751,43.5548178,31030
334,ENSIACET Toulouse Chimie,1.5010751,43.5548178,31030
335,Concours Commun Polytechnique PC-Chimie,2.2112917,48.7142971,91120
336,ENGEES Strasbourg PC,7.758007800000001,48.5849696,67070
337,ENSISA Mulhouse PC,7.310896100000001,47.7290842,68093
338,concours Télécom SudParis PC,2.4433504,48.6249477,91000
339,Matériaux-Polytech Paris-Sud,2.1712321,48.70902239999999,91190
340,Matériaux-Polytech Paris-UPMC,2.3577864,48.8462524,75005
341,Cycle International Centrale-Supelec,2.1661629,48.709445,91190
342,ENSEIRB-MATMECA Bordeaux Mathématiques et Mécanique,-0.6051667,44.80663759999999,33400
343,ENSEM Nancy Pluriscientifique,6.1473745,48.6518424,54500
344,ENSEM Nancy Ingénierie des systèmes numériques,6.1473745,48.6518424,54500
345,ISAE-ENSMA Poitiers,0.3613693,46.66132520000001,86360
346,TELECOM PHYSIQUE Strasbourg,7.7377182,48.5254976,67400
347,ENSISA Mulhouse Automatique et Systèmes,7.310896100000001,47.7290842,68093
348,Mines de Douai Fonct.,3.0676659,50.3755213,59500
349,TELECOM Lille 1,3.1347239,50.6114415,59650
350,TELECOM PHYSIQUE Strasbourg-TIC et Santé,7.7377182,48.5254976,67400
351,ENSTA Bretagne Civil,-4.4720707,48.41908,29200
352,ENSTA Bretagne Militaire,-4.4720707,48.41908,29200
353,ENSTA Bretagne Civil Voie du Concours Mines Ponts,-4.4720707,48.41908,29200
354,"Aménagement, Eau et Environnement-Polytech Tours",0.6847464999999999,47.3646921,37200
355,"Automatique, Robotique, Systèmes industriels-Polytech Lyon",4.8683428,45.7791677,69100
356,"Energie électrique, Systèmes électroniques, informatiques et optiques-Polytech Paris-UPMC",2.3577864,48.8462524,75005
357,"Génie biologique, Agroalimentaire, Biotechnologie-Polytech Nantes",-1.5158639,47.2819356,44300
358,"Génie Civil, Bâtiment, Géosciences-Polytech Nantes",-1.5158639,47.2819356,44300
359,Informatique-Polytech Lyon,4.8683428,45.7791677,69100
360,Informatique-Polytech Marseille,5.4431033,43.23194669999999,13009
361,"Ingénierie pour la santé, Génie biomédical-Polytech Lyon",4.8683428,45.7791677,69100
362,"Ingénierie pour la santé, Génie biomédical-Polytech Marseille",5.4431033,43.23194669999999,13009
363,ISAT Nevers-département MIT (Mécanique et Ingénierie des Transports),3.1714703,46.997819,58027
364,ISAT Nevers-département EPEE (Energies et Moteurs),3.1714703,46.997819,58027
365,Matériaux-Polytech Marseille,5.4431033,43.23194669999999,13009
366,"Mathématiques appliquées, Modélisation-Polytech Lyon",4.8683428,45.7791677,69100
367,Mécanique-Polytech Lyon,4.8683428,45.7791677,69100
368,"Mécanique, Énergie, Matériaux, Mécatronique-Polytech Marseille",5.4431033,43.23194669999999,13009
369,IPSA Paris,2.3938746,48.8139882,94200
370,IPSA Toulouse,1.4289435,43.6123111,31000
371,EPITA / IPSA PSI,2.3628171,48.81566540000001,94270
372,"Concours ENS Cachan MP (options MP/MP, MP/MPI)",2.1649417,48.7123564,91190
373,Concours ENS Cachan Informatique,2.1649417,48.7123564,91190
374,EPITA / IPSA MP,2.3628171,48.81566540000001,94270
375,Matériaux-Polytech Lyon,4.8683428,45.7791677,69100
376,EPITA / IPSA PC,2.3628171,48.81566540000001,94270
377,Concours Commun des Ecoles des Mines,2.339138,48.8455886,75272
378,EPITA / IPSA PT,2.3628171,48.81566540000001,94270
379,EIL Côte d'Opale (ex EIPC) TSI,1.880568,50.9525945,62100
380,EPITA / IPSA TSI,2.3628171,48.81566540000001,94270
381,Bordeaux Sciences Agro (ex ENITAB),-0.6063803,44.7931179,33170
382,VetAgro Sup Clermont-Ferrand,3.1762589,45.7758304,63370
383,concours Polytech G2E-BCPST,,,
384,ENSEGID,-0.6079880999999999,44.8048063,33600
385,"Génie biologique, Agroalimentaire, Biotechnologies-Polytech Marseille",5.4431033,43.23194669999999,13009
386,ENS de Lyon MPI,4.8334497,45.7332787,69342
387,ENS de Lyon Info.,4.8334497,45.7332787,69342
388,CENTRALE PARIS-étr.,2.3051306,48.8372299,75015
389,SUPELEC,2.1661629,48.709445,91190
390,SUPELEC-étr.,2.1661629,48.709445,91190
391,Institut d'optique Graduate School (SupOptique)-étr.,2.2034927,48.71373999999999,91120
392,CENTRALE PARIS-CI,2.1661629,48.709445,91190
393,SUPELEC-CI,2.1661629,48.709445,91190
394,CENTRALE LYON-CI,4.766499899999999,45.7825983,69134
395,CENTRALE LILLE-CI,3.1365135,50.6068158,59650
396,CENTRALE NANTES-CI,-1.5495565,47.24833839999999,44300
397,Institut d'optique Graduate School (SupOptique)-CI,2.2034927,48.71373999999999,91120
398,CENTRALE MARSEILLE-CI,5.4371117,43.3424593,13013
399,ENSI Bourges Risques Industriels (MRI),2.398782,47.081012,18000
400,ENSI Bourges Informatique (STI),2.398782,47.081012,18000
401,ENSEEIHT Toulouse Electronique et Traitement du Signal,1.455808,43.6021194,31000
402,ENSEEIHT Toulouse Génie Electrique et Automatique,1.455808,43.6021194,31000
403,ENSEEIHT Toulouse Hydraulique et Mécanique des Fluides,1.455808,43.6021194,31000
404,TELECOM Nancy,6.155318,48.6691262,54602
405,Arts et Métiers-ingénieurs militaires,2.3582236,48.8330427,75013
406,ESTP Paris Génie Mécanique et Electrique (GME),2.3522219,48.856614,75004
407,ESI Reims,4.0645583,49.2377566,51100
408,ESIROI Saint Denis de la Réunion,55.49073199999999,-21.3403709,97410
409,ISTY Vélizy UVSQ,2.2176517,48.7820684,78140
410,"Polytech Annecy-Chambéry-Environnement, Bâtiment, Énergie",6.1577674,45.91949779999999,74940
411,"Polytech Annecy-Chambéry-Instrumentation, Automatique, Informatique",6.1577674,45.91949779999999,74940
412,"Polytech Annecy-Chambéry-Mécanique, Matériaux",6.1577674,45.91949779999999,74940
413,Polytech Clermont-Ferrand-Génie Civil,3.1092253,45.7608031,63100
414,Polytech Clermont-Ferrand-Génie Electrique,3.1092253,45.7608031,63100
415,Polytech Clermont-Ferrand-Génie Mathématique et Modélisation,3.1092253,45.7608031,63100
416,Polytech Clermont-Ferrand-Génie Physique,3.1092253,45.7608031,63100
417,Polytech Grenoble-Géotechnique,5.752253,45.1846156,38400
418,Polytech Grenoble-Matériaux,5.752253,45.1846156,38400
419,Polytech Grenoble-Prévention des risques,5.752253,45.1846156,38400
420,"Polytech Grenoble-Systèmes électroniques et informatiques, Réseaux",5.752253,45.1846156,38400
421,Polytech Grenoble-Technologies de l'information pour la santé,5.752253,45.1846156,38400
422,Polytech Lille-Génie Informatique et statistique,3.1370078,50.6078394,59655
423,"Polytech Lille-Géotechnique, Génie civil",3.1370078,50.6078394,59655
424,"Polytech Lille-Informatique, Microélectronique, Automatique",3.1370078,50.6078394,59655
425,Polytech Lille-Ingénierie et commercialisation des systèmes de mesure,3.1370078,50.6078394,59655
426,Polytech Lille-Matériaux,3.1370078,50.6078394,59655
427,Polytech Lille-Mécanique,3.1370078,50.6078394,59655
428,Polytech Lyon-Génie Bomédical,4.8683428,45.7791677,69100
429,Polytech Lyon-Informatique,4.8683428,45.7791677,69100
430,Polytech Lyon-Mathématiques Appliquées et Modélisation,4.8683428,45.7791677,69100
431,Polytech Marseille-Génie Biomédical,5.4431033,43.23194669999999,13009
432,Polytech Marseille-Génie Civil,5.4431033,43.23194669999999,13009
433,Polytech Marseille-Génie Industriel et Informatique,5.4431033,43.23194669999999,13009
434,Polytech Marseille-Informatique,5.4431033,43.23194669999999,13009
435,Polytech Marseille-Matériaux,5.4431033,43.23194669999999,13009
436,"Polytech Marseille-Mécanique, Energétique",5.436671599999999,43.3452971,13013
437,"Polytech Marseille-Microélectronique,Télécommunications",5.4431033,43.23194669999999,13009
438,"Polytech Montpellier-Électronique, Robotique et Informatique industrielle",3.8625953,43.6327433,34095
439,"Polytech Montpellier-Énergétique, Énergies renouvelables",3.8625953,43.6327433,34095
440,Polytech Montpellier-Informatique et Gestion,3.8625953,43.6327433,34095
441,Polytech Montpellier-Matériaux,3.8625953,43.6327433,34095
442,Polytech Nantes-Électronique et technologies numériques,-1.5158639,47.2819356,44300
443,Polytech Nantes-Énergie électrique,-1.5158639,47.2819356,44300
444,Polytech Nantes-Génie civil,-1.5158639,47.2819356,44300
445,Polytech Nantes-Informatique,-1.5158639,47.2819356,44300
446,Polytech Nantes-Matériaux,-1.5158639,47.2819356,44300
447,"Polytech Nantes-Thermique, Énergétique",-1.5158639,47.2819356,44300
448,Polytech Nice-Sophia-Bâtiments,7.0717782,43.6155521,06410
449,Polytech Nice-Sophia-Électronique,7.0717782,43.6155521,06410
450,Polytech Nice-Sophia-Génie de l'eau,7.0717782,43.6155521,06410
451,Polytech Nice-Sophia-Informatique,7.0717782,43.6155521,06410
452,"Polytech Nice-Sophia-Mathématiques appliquées, Modélisation",7.0717782,43.6155521,06410
453,Polytech Orléans-Écotechnologie électroniques et optiques,1.9390229,47.8440593,45100
454,Polytech Orléans-Génie civil et géo-environnement,1.9390229,47.8440593,45100
455,"Polytech Orléans-Mécanique, Énergétique, Matériaux, Mécatronique",1.9390229,47.8440593,45100
456,"Polytech Paris-Sud-Electronique, Energie, Systèmes",2.1712321,48.70902239999999,91190
457,Polytech Paris-Sud-Informatique,2.1712321,48.70902239999999,91190
458,Polytech Paris-Sud-Photonique et systèmes optroniques,2.1712321,48.70902239999999,91190
459,Polytech Paris-UPMC-Electronique et Informatique,2.3577864,48.8462524,75005
460,Polytech Paris-UPMC-Robotique,2.3577864,48.8462524,75005
461,Polytech Paris-UPMC-Sciences de la Terre,2.3577864,48.8462524,75005
462,Polytech Tours-Aménagement,0.6804406,47.367025,37200
463,"Polytech Tours-Électronique, Énergie électrique",0.6877878,47.3645904,37200
464,Polytech Tours-Informatique,0.6877878,47.3645904,37200
465,"Polytech Tours-Mécanique, Conception de systèmes",0.6877878,47.3645904,37200
466,Concours POLYTECH,2.3577864,48.8462524,75005
467,EIGSI Casablanca,-7.6307559,33.5575162,20035
468,EIGSI La Rochelle,-1.1544972,46.1397264,17041
469,EIL Côte d'Opale Longuenesse-Calais,1.880568,50.9525945,62100
470,EPF campus TROYES,2.3272555,48.7889071,94230
471,EPF campus MONTPELLIER,3.871645,43.6004614,34000
472,EPF campus SCEAUX,2.3272555,48.7889071,94230
473,EPF Sceaux-Troyes-Montpellier,2.3272555,48.7889071,94230
474,ESIGETEL Villejuif,2.3640636,48.7885773,94800
475,ESILV Paris-La Défense,2.2356593,48.8960876,92400
476,ESME SUDRIA Paris,2.3929998,48.8140771,94200
477,EPMI Cergy-Pontoise,2.0750699,49.0316204,95000
478,ESAIP Angers-Grasse,-0.4973334,47.464054,49124
479,Polytech Lyon-Mécanique,4.8683428,45.7791677,69100
480,"Polytech Lyon-Systèmes industriels, Robotique",4.8683428,45.7791677,69100
481,Polytech Montpellier-Mécanique et Interactions,3.8625953,43.6327433,34095
482,Polytech Nantes-Génie des Procédés et Bioprocédés,-1.5158639,47.2819356,44300
483,Polytech Lyon-Matériaux,4.8683428,45.7791677,69100
484,ENS de Lyon,4.8334497,45.7332787,69342
485,ESIAB Brest,-4.567904,48.3604503,29280
486,Polytech Clermont-Ferrand-Génie Biologique,3.1092253,45.7608031,63100
487,Polytech Lille-Génie biologique et alimentaire,3.1370078,50.6078394,59655
488,Polytech Montpellier-Sciences et technologies de l'eau,3.8625953,43.6327433,34095
489,Polytech Montpellier-Sciences et technologies des Industries alimentaires,3.8625953,43.6327433,34095
490,Polytech Nice-Sophia-Génie biologique,7.0717782,43.6155521,06410
491,Polytech Paris-Sud-Matériaux,2.1712321,48.70902239999999,91190
492,Polytech Paris-UPMC-Matériaux,2.3577864,48.8462524,75005
493,ONIRIS Nantes Atlantique (cursus agroalimentaire),-1.5227746,47.2891843,44300
494,ONIRIS Nantes Atlantique (cursus vétérinaire),-1.5227746,47.2891843,44300
495,Polytech Paris-UPMC-Agroalimentaire,2.3577864,48.8462524,75005
496,"Polytech Marseille-Génie Biologique, Biotechnologie",5.4431033,43.23194669999999,13009
497,Concours POLYTECH A BIO,2.2112917,48.7142971,91120
498,ENS Rennes MP,-1.7456349,48.04588440000001,35170
499,ENS Rennes Info.,-1.7456349,48.04588440000001,35170
500,TELECOM BRETAGNE cursus Brest-Rennes-Toulouse,2.2003541,48.712841,91120
501,TELECOM BRETAGNE cursus Sophia,2.4433504,48.6249477,91000
502,EISTI Cergy-Pau Génie Informatique,2.0697464,49.0350546,95000
503,EISTI Cergy-Pau Génie Mathématiques,2.0697464,49.0350546,95000
504,SeaTech Toulon,6.0117444,43.1362623,83130
505,ENAC Montpellier Civil,3.952351199999999,43.5794201,34130
506,ENTPE Lyon Civil,4.9223494,45.77860829999999,69120
507,ENTPE Lyon Fonctionnaire,4.9223494,45.77860829999999,69120
508,ENTPE Lyon Etranger,4.9223494,45.77860829999999,69120
509,ESIR Rennes,-1.6364057,48.118086,35042
510,ESIREM Dijon,5.073972299999999,47.3121732,21000
511,ESIX Normandie,-1.6442149,49.6343438,50130
512,ISBS Créteil,2.4539208,48.7951184,94000
513,ISEL Le Havre,0.1261262,49.4898336,76600
514,ISTY Vélizy,2.2176517,48.7820684,78140
515,Polytech Montpellier-Électronique et Informatique industrielle,3.8625953,43.6327433,34095
516,ESIEA Paris / Laval,2.3784328,48.81446889999999,94200
517,ESTACA Laval,-0.7579395,48.0876319,53000
518,ESTACA Levallois-Perret,2.041424,48.787661,78180
519,ESTACA Levallois-Perret/Laval,-0.7579395,48.0876319,53000
520,INSA centre val de loire,1.3256882,47.5845012,41000
521,ENS Rennes,-1.7456349,48.04588440000001,35170
522,ENAC Toulouse Territorial,1.4830052,43.5642909,31400
523,ISTIA Angers,-0.592078,47.48052490000001,49000
524,ECPM Strasbourg-CHEMBIOTECH (ECPM-ESBS),7.7158292,48.607586,67200
525,CENTRALE CASABLANCA,-7.6204414,33.4800758,27182
526,Bordeaux INP-ENSEIRB-MATMECA Electronique,-0.6052137,44.805645,33400
527,Bordeaux INP-ENSEIRB-MATMECA Informatique,-0.6052137,44.805645,33400
528,Bordeaux INP-ENSEIRB-MATMECA Mathématiques et Mécanique,-0.6052137,44.805645,33400
529,Bordeaux INP-ENSEIRB-MATMECA Télecom.,-0.6052137,44.805645,33400
530,CPE LYON Electronique Informatique,4.8697515,45.7841601,69100
531,ENSEM Nancy Energie,6.1473745,48.6518424,54500
532,ENSEM Nancy Spécialité des systèmes numériques,6.1473745,48.6518424,54500
533,INP-ENSEEIHT Toulouse Electronique et Traitement du Signal,1.455808,43.6021194,31000
534,INP-ENSEEIHT Toulouse Génie Electrique et Automatique,1.455808,43.6021194,31000
535,INP-ENSEEIHT Toulouse Hydraulique et Mécanique des Fluides,1.455808,43.6021194,31000
536,INP-ENSEEIHT Toulouse Informatique et Mathématiques appliquées,1.455808,43.6021194,31000
537,INP-ENSEEIHT Toulouse Télécom.réseaux,1.455808,43.6021194,31000
538,INP-ENSIACET Toulouse Génie des Procédés,1.5010751,43.5548178,31030
539,INP-ENSIACET Toulouse Génie Industriel,1.5010751,43.5548178,31030
540,ENSG-Géomatique Marne la Vallée Civil,2.5879613,48.8410851,77420
541,TELECOM PHYSIQUE Strasbourg-Réseaux et Télécom,7.7377182,48.5254976,67400
542,Arts et Métiers,2.3582236,48.8330427,75013
543,Polytech Orléans-Génie industriel,1.9390229,47.8440593,45100
544,Polytech Orléans-Innovation en Conception et Matériaux,1.9390229,47.8440593,45100
545,"Polytech Orléans-Technologies pour l'Énergie, l'Aérospatial et la Motorisation",1.9390229,47.8440593,45100
546,Polytech Paris-UPMC Informatique et mathématiques appliquées,2.3577864,48.8462524,75005
547,Polytech Tours-aménagement et environnement,0.6804406,47.367025,37200
548,ENSAIT Roubaix-Formation en alternance,3.1682748,50.6944887,59100
549,ESTACA Paris-Saclay,2.041424,48.787661,78180
550,ESTACA Paris-Saclay/Laval,2.041424,48.787661,78180
551,INP-ENI Tarbes,0.0512515999999999,43.2249893,65000
552,INSA centre val de loire STI,1.3256882,47.5845012,41000
553,INSA centre val de loire GSI,1.3256882,47.5845012,41000
554,INSA centre val de loire MRI,1.3256882,47.5845012,41000
555,INSA Centre Val de Loire,1.3256882,47.5845012,41000
556,Mines Douai-ISPA Alençon,0.0587716999999999,48.4442826,61250
557,ECAM Rennes,-1.7430977,48.04685850000001,35170
558,ECAM-EPMI Cergy-Pontoise,2.0750699,49.0316204,95000
559,CENTRALE CASABLANCA-CI,-7.6204414,33.4800758,27182
560,Bordeaux INP-ENSCBP Chimie-Physique,-0.6111213,44.8011924,33607
561,INP-ENSIACET Toulouse Génie chimique,1.5010751,43.5548178,31030
562,INP-ENSIACET Toulouse Matériaux,1.5010751,43.5548178,31030
563,INP-ENSIACET Toulouse Chimie,1.5010751,43.5548178,31030
564,Bordeaux Sciences Agro,-0.6063803,44.7931179,33170
565,Bordeaux INP-ENSCBP Biologie-Alimentation,-0.6111213,44.8011924,33607
566,concours des écoles des Mines G2E-BCPST,,,
567,ENSG-Géomatique Marne la Vallée Fonctionnaire,2.5879613,48.8410851,77420
568,concours ENSG Marne La vallée G2E-BCPST,2.5879613,48.8410851,77420
569,ARTS ET MÉTIERS,2.3582236,48.8330427,75013
570,ECOLE SUPERIEURE D'OPTIQUE,2.2034927,48.71373999999999,91120
571,EGIM Marseille,5.4371117,43.3424593,13013
572,I.I.E. CNAM,2.35576,48.866558,75003
573,Télécom INT,2.4433504,48.6249477,91000
574,EIC Cherbourg,-1.6442149,49.6343438,50130
575,MINES Paris,2.339138,48.8455886,75272
576,MINES Nancy,6.1702775,48.6729956,54042
577,MINES St Etienne,4.408427,45.4225457,42100
578,Ponts et Chaussées,2.588727,48.840563,77420
579,Techniques avancées,2.2180501,48.7107339,91120
580,ENST Cursus Paris,2.3360291,48.8662962,75001
581,ENST Bretagne,2.2003541,48.712841,91120
582,ENST Sophia Antipolis,7.041091700000001,43.6271655,06560
583,Concours Commun Mines Ponts,2.3358177,48.8304214,75014
584,ENSAM,2.3582236,48.8330427,75013
585,Concours Commun ENSAM,2.3582236,48.8330427,75013
586,ENSEIR Bordeaux Electronique,-0.6051667,44.80663759999999,33400
587,ENSEIR Bordeaux Informatique,-0.6051667,44.80663759999999,33400
588,ENSEIR Bordeaux Télecom.,-0.6051667,44.80663759999999,33400
589,ENSIETA Brest Civil,-4.4720707,48.41908,29200
590,ENSICAEN Electronique,-0.367627,49.214099,14000
591,INP Grenoble-EFPG,5.7757511,45.1960652,38402
592,INP Grenoble-ENSEEG,5.771042599999999,45.1956426,38610
593,INP Grenoble-ENSIEG,5.717421499999999,45.190758,38000
594,ENSICA Toulouse,1.4664576,43.6146488,31500
595,ENSIAME Valenciennes Info Autom.,3.5147174,50.3248476,59300
596,ENSTIM Albi,-77.00032759999999,38.8739354,20003
597,ENSTIM Alès,4.083352,44.127204,30100
598,"ENSTIM Albi, Alès, Douai, Nantes",-1.553621,47.218371,44000
599,ENSI Bourges,2.398782,47.081012,18000
600,ENSIETA Brest Militaire,-4.4720707,48.41908,29200
601,CUST Clermont-Ferrand MPE,3.1092253,45.7608031,63100
602,ENSTIM Douai,3.0676659,50.3755213,59500
603,POLYTECH Lille G.I.S,3.1370078,50.6078394,59655
604,POLYTECH Lille I.M.A,3.1370078,50.6078394,59655
605,Réseau Polytech,2.3577864,48.8462524,75005
606,ISMEA Gardanne,5.4717363,43.4525982,13120
607,POLYTECH Grenoble Géot.,5.752253,45.1846156,38400
608,POLYTECH Grenoble PRIHSE,5.752253,45.1846156,38400
609,POLYTECH Grenoble SciGMa,5.752253,45.1846156,38400
610,POLYTECH Grenoble 3I,5.752253,45.1846156,38400
611,POLYTECH Marseille Génie Civil,5.4431033,43.23194669999999,13009
612,POLYTECH Marseille GII,5.411790799999999,43.3386542,13013
613,POLYTECH Marseille M.E.,5.4431033,43.23194669999999,13009
614,POLYTECH Marseille M. Télec.,5.4431033,43.23194669999999,13009
615,POLYTECH Montpellier Micro.,3.8625953,43.6327433,34095
616,ESSAIM Mulhouse,7.310896100000001,47.7290842,68093
617,ENSIT Mulhouse Mécanique et systèmes,7.310896100000001,47.7290842,68093
618,ENSIT Mulhouse Textile et Habillement,7.308810199999999,47.7302762,68200
619,ENSIT Mulhouse TSI,7.310896100000001,47.7290842,68093
620,ENSTIM Nantes,-1.5208446,47.2822842,44300
621,POLYTECH Nantes GE,-1.5158639,47.2819356,44300
622,POLYTECH Nantes MAT,-1.5158639,47.2819356,44300
623,POLYTECH Nantes SEII,-1.5158639,47.2819356,44300
624,POLYTECH Nantes TE,-1.5158639,47.2819356,44300
625,POLYTECH' Nice-Sophia-Electronique,7.0717782,43.6155521,06410
626,POLYTECH Orléans,1.9390229,47.8440593,45100
627,ESTP Paris GEOMETRES,2.3498281,48.8268365,75013
628,POLYTECH Tours Product.,0.6847464999999999,47.3646921,37200
629,POLYTECH Tours Info.,0.6847464999999999,47.3646921,37200
630,ECOLE POLYTECHNIQUE Info. etranger,2.2112917,48.7142971,91120
631,ECOLE POLYTECHNIQUE P&SI etranger,2.2112917,48.7142971,91120
632,SUPAERO Toulouse,1.474008,43.5655361,31400
633,INP Grenoble-ENSERG,5.717421499999999,45.190758,38031
634,INP Grenoble-ENSHMG,5.768265899999999,45.1934574,38400
635,INP Grenoble-ENSIMAG,5.768265899999999,45.1934574,38400
636,INP Grenoble-ENSPG,5.717421499999999,45.190758,38031
637,INP Grenoble-TELECOM,5.7175052,45.1908463,38000
638,ENSC Paris,2.3435537,48.84421,75005
639,ENSGTI Pau,-0.3644096000000001,43.3194063,64000
640,ENSEEIHT Toulouse Informatique,1.455808,43.6021194,31000
641,ESM Saint-Cyr (*),-2.1498977,47.94579,56380
642,INP Grenoble-ENSGI,5.7175052,45.1908463,38000
643,ENSIT Mulhouse MP,7.310896100000001,47.7290842,68093
644,ENSAI Rennes Fonctionnaire,-1.7417817,48.05062059999999,35170
645,ENGEES Strasbourg Civil,7.758007800000001,48.5849696,67070
646,ECOLE METEOROLOGIE,1.3776632,43.5739021,31100
647,ESIEE-ISMEA MP,,,
648,MATMECA Bordeaux,-0.6051667,44.80663759999999,33400
649,"Ecoles des Mines d'Albi, Alès, Douai, Nantes",3.0676659,50.3755213,59500
650,ENSAE Statistique Malakoff,2.3024523,48.8243738,92240
651,Concours ESTP,,,
652,EPUPMC Paris 6 Elec. Info,2.3545973,48.8467451,75005
653,EPUPMC Paris 6 Sci.Terre,2.357499,48.8471036,75005
654,EPUPMC Paris 6,2.357499,48.8471036,75005
655,ESIA Annecy,6.1577674,45.91949779999999,74940
656,ESIEC Reims,4.0645583,49.2377566,51100
657,ESIGEC Chambéry GE,1.0768848,49.3832749,76800
658,ESIGEC Chambéry IB,5.917781,45.564601,73000
659,ESIGEC Chambéry MC,5.917781,45.564601,73000
660,ESIGEC Chambéry,1.0768848,49.3832749,76800
661,ESIL Internet,,,
662,ESIL Marseille Informatique,5.4431891,43.2322616,13288
663,ESIP Poitiers Eau et Environnement,0.3832459,46.5688039,86022
664,ESIP Poitiers Eclairage-Acoustique-Climatisation,0.3832459,46.5688039,86022
665,ESIP Poitiers Energétique,0.3832459,46.5688039,86022
666,ESIP Poitiers Génie Civil,0.3832459,46.5688039,86022
667,ESIP Poitiers Génie Electrique et Automatique,0.3832459,46.5688039,86022
668,ESIP Poitiers,0.3832459,46.5688039,86022
669,IDC Bordeaux,-0.5975148,44.8062267,33400
670,IFIPS Paris 11 Orsay,2.3802733,48.8578078,75011
671,IFSIC Rennes,-1.673112,48.11574599999999,35000
672,ISITV Toulon ICS,5.9402523,43.1211108,83000
673,ISITV Toulon IMAR,6.0117444,43.1362623,83130
674,ISITV Toulon IMATER,5.935657793670618,43.124633925175466,83000
675,ISITV Toulon ITEL,5.93914,43.120563,83000
676,ISPG Paris 13 Villetaneuse,2.341461,48.95620900000001,93430
677,ISTASE St Etienne,4.4244562,45.4238076,42000
678,ISTIL Lyon,4.8683428,45.7791677,69100
679,CUST Clermont-Ferrand Génie Civil,3.1092253,45.7608031,63100
680,POLYTECH Grenoble RICM,5.752253,45.1846156,38400
681,POLYTECH Grenoble TIS,5.752253,45.1846156,38400
682,POLYTECH Lille G.GC.,3.1370078,50.6078394,59655
683,POLYTECH Lille I.S,3.1370078,50.6078394,59655
684,POLYTECH Lille Méca.,3.1370078,50.6078394,59655
685,POLYTECH Lille Sc. Mat.,3.1370078,50.6078394,59655
686,POLYTECH Montpellier Infor.,3.8625953,43.6327433,34095
687,POLYTECH Montpellier Matér.,3.8625953,43.6327433,34095
688,POLYTECH Nantes INFO,-1.5158639,47.2819356,44300
689,POLYTECH' Nice-Sophia-Math. App. et Modélisation,7.0717782,43.6155521,06410
690,POLYTECH' Nice-Sophia-Sciences Informatiques,7.0717782,43.6155521,06410
691,POLYTECH Tours Aménag.,0.6847464999999999,47.3646921,37200
692,"Réseau POLYTECH (CUST, Polytech')",2.3577864,48.8462524,75005
693,EIPC Longuenesse,2.2604769,50.7344417,62219
694,EIPI-ISPA Alençon,0.0587716999999999,48.4442826,61250
695,EISTI Cergy,2.0697464,49.0350546,95000
696,EISTI Pau,-0.3500523,43.3054634,64000
697,concours EISTI Cergy MP,2.0697464,49.0350546,95000
698,concours ESIEA Paris-Laval MP,2.3784328,48.81446889999999,94200
699,ESME-Sudria Paris,2.3929998,48.8140771,94200
700,ECOLE L. de Broglie Rennes,-1.7430977,48.04685850000001,35170
701,ESCOM Cergy,2.0786111,49.0328255,95000
702,INA P-G,2.3476575,48.8397733,75005
703,ENSA Montpellier,3.8569411,43.636483,34090
704,Agrocampus Rennes,-1.7102321,48.1264244,35000
705,ENSHAP Angers,-0.6058392,47.4791574,49000
706,ENSIA Massy,2.27137,48.730756,91300
707,ENSBANA Dijon,5.04148,47.322047,21000
708,FIF Fonctionnaire Nancy,6.184417,48.692054,54100
709,FIF Civil Nancy,6.173609866675795,48.68863848181818,54000
710,ENITAB Bordeaux,-0.6063803,44.7931179,33170
711,ENITAC Clermont-Ferrand,3.1762589,45.7758304,63370
712,ENITIAA Nantes,-1.5659892,47.2635201,44300
713,ENESAD Dijon,5.04148,47.322047,21000
714,ENV Lyon,4.7072663,45.7921752,69280
715,ENV Nantes,-1.5227746,47.2891843,44300
716,ESPCI Paris,2.3475905,48.8412746,75005
717,concours ENGEES G2E-BCST,7.758007800000001,48.5849696,67070
718,EPUPMC Paris 6 Agroalimentaire,2.3577864,48.8462524,75005
719,ESTBB Bordeaux,-0.6070843,44.8226969,33000
720,ISTAB Bordeaux,29.0112451,41.0622,34349
721,CUST Clermont-Ferrand Génie Biol.,3.1092253,45.7608031,63100
722,POLYTECH Lille IAAL,3.1370078,50.6078394,59655
723,POLYTECH Montpellier STE,3.8625953,43.6327433,34095
724,POLYTECH Montpellier STIA,3.8625953,43.6327433,34095
725,POLYTECH' Nice-Sophia-Génie Biologique,7.0717782,43.6155521,06410
726,Réseau POLYTECH,2.3577864,48.8462524,75005
727,ECOLE POLYTECHNIQUE Etranger,2.2112917,48.7142971,91120
728,ESPCI Paris Etranger,2.3475905,48.8412746,75005
729,ENSCP Bordeaux,-0.6111213,44.8011924,33607
730,ENSIT Mulhouse PC,7.310896100000001,47.7290842,68093
731,ESIEE-ISMEA PC,2.2919749,49.8995592,80080
732,ENSIL Limoges Matéraux,1.2952454,45.86102899999999,87280
733,EPUPMC Paris 6 Matériaux,2.3577864,48.8462524,75005
734,concours EISTI Cergy PC,2.0697464,49.0350546,95000
735,concours ESIEA Paris-Laval PC,2.3784328,48.81446889999999,94200
736,ENS Cachan FIL. SCIEN. ou SI,2.1649417,48.7123564,91190
737,ENS Cachan FIL.SI,2.1649417,48.7123564,91190
738,ENSIT Mulhouse PSI,7.310896100000001,47.7290842,68093
739,ESIEE-ISMEA PSI,2.2919749,49.8995592,80080
740,EIVL Blois,1.3359475,47.58609209999999,41000
741,concours EISTI Cergy PSI,2.0697464,49.0350546,95000
742,concours ESIEA Paris-Laval PSI,2.3784328,48.81446889999999,94200
743,Concours Commun Mines-Ponts,2.3358177,48.8304214,75014
744,Concours commun ENSAM,2.3582236,48.8330427,75013
745,"Concours ArchIDF (IFIPS, ISPG, ISTY)",2.2176517,48.7820684,78140
746,Concours Polytech-Eiffel,2.2112917,48.7142971,91120
747,ENSIT Mulhouse,7.310896100000001,47.7290842,68093
748,concours EISTI Cergy PT,2.0697464,49.0350546,95000
749,concours ESIEA Paris-Laval PT,2.3784328,48.81446889999999,94200
750,Université de Technologie de Troyes (UTT),4.066776100000001,48.26916199999999,10300
751,SIGMA Clermont-Ferrand (ex IFMA),3.1127728,45.7576185,63170
752,ISAE-SUPAERO Toulouse,1.474008,43.5655361,31400
753,ENSGSI-Lorraine INP,6.1936569,48.6949818,54000
754,ENSIAME Valenciennes Informatique et Génie Industriel,3.5147174,50.3248476,59300
755,3IL Ingénieurs,1.2722802,45.8187995,87000
756,Mines Saint Etienne-ISMIN,4.408427,45.4225457,42100
757,TELECOM PHYSIQUE Strasbourg TIC-Santé,7.7377182,48.5254976,67400
758,TELECOM St Etienne-Statut apprenti,4.387829099999999,45.4523598,42000
759,TELECOM St Etienne-Statut étudiant,4.387829099999999,45.4523598,42000
760,"Polytech Grenoble-Informatique industrielle, Instrumentatlisation",5.752253,45.1846156,38400
761,TELECOM PHYSIQUE Strasbourg-RT-INOC,7.7377182,48.5254976,67400
762,TELECOM SudParis-cursus Sophia-Antipolis,2.4433504,48.6249477,91000
763,ESIROI La Réunion,55.49073199999999,-21.3403709,97410
764,Polytech Grenoble-Géotechnique et génie civil,5.752253,45.1846156,38400
765,Polytech Grenoble-Réseaux informatiques,5.752253,45.1846156,38400
766,Polytech Tours-Aménagement et environnement,0.6804406,47.367025,37200
767,École Supérieure d'Ingénieurs de Paris-Est Créteil (ESIPE-Créteil),2.4436757,48.7950397,94000
768,ELISA Aérospace Saint Quentin,3.2871557,49.8493814,02100
769,ESTACA Laval Aéronautique et spatial,-0.7579395,48.0876319,53000
770,ESTACA Laval Automobile,-0.7579395,48.0876319,53000
771,ESTACA Paris-Saclay Aéronautique et spatial,2.041424,48.787661,78180
772,ESTACA Paris-Saclay Automobile ou Transports Guidés,2.041424,48.787661,78180
773,ESAIP Angers,-0.4973334,47.464054,49124
774,ECPM-ESBS Strasbourg-CHEMBIOTECH,7.7385873,48.5258824,67400
775,SIGMA Clermont-Ferrand (ex ENSCCF),3.1127728,45.7576185,63170
776,ENSIIE (I.I.E. CNAM ),2.4322721,48.6267007,91000
777,TELECOM SudParis (ex Télécom INT),2.4433504,48.6249477,91000
778,ESIX Normandie-Production industrielle,-1.6442149,49.6343438,50130
779,Télécom ParisTech,2.2004477,48.7128764,91120
780,ENST Cursus Sophia Antipolis,7.071124999999999,43.614386,06410
781,TELECOM Bretagne,2.2003541,48.712841,91120
782,ESIP Poitiers : IPE-C,0.3832459,46.5688039,86022
783,ESIP Poitiers : IPE-P,0.340375,46.58022400000001,86000
784,ISAE-ENSICA Toulouse,1.4688129,43.6180859,31500
785,ISAT Nevers département Châssis et Habitacle,3.1714703,46.997819,58027
786,ISAT Nevers-département Motorisation et Environnement,3.1714703,46.997819,58027
787,POLYTECH Clermont-Ferrand MPE,3.1092253,45.7608031,63100
788,POLYTECH Montpellier ERII,3.8625953,43.6327433,34095
789,POLYTECH Nantes Génie civil,-1.5158639,47.2819356,44300
790,POLYTECH Nice-Sophia-Electronique,7.0717782,43.6155521,06410
791,POLYTECH Orléans EO,1.9390229,47.8440593,45100
792,POLYTECH Orléans GCE,1.9390229,47.8440593,45100
793,POLYTECH Orléans ME,1.9390229,47.8440593,45100
794,POLYTECH Paris UPMC Elec. Info,2.3577864,48.8462524,75005
795,POLYTECH Paris UPMC Robotique,2.3577864,48.8462524,75005
796,POLYTECH Savoie EBE,6.1577674,45.91949779999999,74940
797,POLYTECH Savoie IAI,6.1577674,45.91949779999999,74940
798,POLYTECH Savoie MM,6.1577674,45.91949779999999,74940
799,POLYTECH Tours ES2E (Electronique et systèmes de l'énergie électrique),0.6847464999999999,47.3646921,37200
800,POLYTECH Tours MCS (Mécanique et Conception de Systèmes),0.6877878,47.3645904,37200
801,AgroParisTech (cursus agronome) Paris-Grignon,2.3476575,48.8397733,75005
802,AgroParisTech (cursus IAA) Massy,2.2971869,48.7326036,91744
803,AgroParisTech (cursus forestier) Nancy (fonctionnaire),6.187846,48.6937988,54000
804,AgroParisTech (cursus forestier) Nancy (civil),6.187846,48.6937988,54000
805,Montpellier Sup Agro (ENSAM),3.854877,43.61728160000001,34060
806,Agrocampus Ouest (cursus agronome) Rennes,-1.7102321,48.1264244,35000
807,Agrocampus Ouest (cursus horticole et paysage) Angers,-1.706322,48.1135487,35042
808,ENSBANA-Agrosup Dijon,5.04148,47.322047,21000
809,ENITAC Clermont-Ferrand (Fonctionnaire),3.0888104,45.7707953,63000
810,ENITAC Clermont-Ferrand (Civil),3.103355,45.801459,63100
811,ENESAD-Agrosup Dijon (Fonctionnaire),5.04148,47.322047,21000
812,ENESAD-Agrosup Dijon (Civil),5.04148,47.322047,21000
813,ISTAB Bordeaux (rapprochement avec ENSCPB),-0.6111213,44.8011924,33607
814,POLYTECH Paris UPMC Sci.Terre,2.3577864,48.8462524,75005
815,ESIX Normandie-Agroalimentaire,-1.6442149,49.6343438,50130
816,POLYTECH Clermont-Ferrand Génie Biologique,3.1092253,45.7608031,63100
817,POLYTECH Nice-Sophia-Génie Biologique,7.0717782,43.6155521,06410
818,POLYTECH Nice-Sophia-Ingéniérie de l'Eau,7.0717782,43.6155521,06410
819,POLYTECH Paris UPMC Agroalimentaire,2.3577864,48.8462524,75005
820,Concours Polytech BCPST,2.2112917,48.7142971,91120
821,ESIEE-ISMIN MP,2.2003541,48.712841,91120
822,ENSAE Paris Tech,2.2076467,48.711006,91120
823,POLYTECH Clermont-Ferrand Génie Civil,3.1092253,45.7608031,63100
824,POLYTECH Nice-Sophia-Math. App. et Modélisation,7.0717782,43.6155521,06410
825,POLYTECH Nice-Sophia-Sciences Informatiques,7.0717782,43.6155521,06410
826,POLYTECH Paris UPMC Matériaux,2.3577864,48.8462524,75005
827,ENI Val de Loire,1.3264799,47.5843239,41000
828,Louis de Broglie,2.4031857,48.8467113,75012
829,ESIEE-ISMIN PC,2.2112917,48.7142971,91120
830,ESFF,2.2247254,48.8229484,92310
831,ESIEE-ISMIN PSI,,,
832,CENTRALE Paris,2.1661629,48.709445,91190
833,Supelec campus Gif,2.1668424,48.71018309999999,91190
834,Supelec campus Metz,6.220958,49.10323289999999,57070
835,Supelec campus Renn.,-1.6234012,48.1252316,35510
836,Supélec TSI,2.1661629,48.709445,91190
837,CENTRALE Lyon,4.766499899999999,45.7825983,69134
838,SupOptique,2.2034927,48.71373999999999,91120
839,CENTRALE Lille,3.1365135,50.6068158,59650
840,CENTRALE Nantes,-1.5495565,47.24833839999999,44300
841,IIE-CNAM,2.35576,48.866558,75003
842,CENTRALE Lille handicapés,3.1365135,50.6068158,59650
843,CENTRALE Nantes handicapés,-1.5495565,47.24833839999999,44300
844,Ponts et Chaussees,2.588727,48.840563,77420
845,SUPAERO,1.474008,43.5655361,31400
846,Techniques Avancees,2.2180501,48.7107339,91120
847,ENST cursus Paris,2.3360291,48.8662962,75001
848,MINES Saint-Etienne,4.408427,45.4225457,42100
849,Telecom Bretagne,2.2003541,48.712841,91120
850,Ecole Polytechnique,2.2112917,48.7142971,91120
851,Commun Mines Ponts TSI,2.3358177,48.8304214,75014
852,ENSAIS G MECA,7.764898400000001,48.5823052,67000
853,ENSAIS PLASTURGIE,7.764898400000001,48.5823052,67000
854,ENSAIS MECATRO,7.764898400000001,48.5823052,67000
855,ENSAIS G.ELEC.,150.5099515,-23.3840207,4700
856,ESIEE-Paris,2.5836143,48.8398086,93160
857,ENSAM TSI,2.3582236,48.8330427,75013
858,ENSMM Besancon,5.9936082,47.2512183,25000
859,ENSEIRB Electronique,-0.6051667,44.80663759999999,33400
860,ENSEIRB Informatique,-0.6051667,44.80663759999999,33400
861,ENSEIRB Telecom,-0.6051667,44.80663759999999,33400
862,ENSIETA Brest civil,-4.4720707,48.41908,29200
863,ISIMA Clermont-Fd,3.1104272,45.7590113,63178
864,ENSEE Grenoble,5.7031278,45.2029611,38031
865,ENSHMG Grenoble,5.768265899999999,45.1934574,38400
866,ENSIEG,5.7031278,45.2029611,38031
867,EFPG Grenoble,5.7757511,45.1960652,38402
868,ENSP Marseille,5.3804719,43.30086499999999,13001
869,ESM2 Marseille,5.36978,43.296482,13002
870,ENSEEIHT Genie Elec.,1.455808,43.6021194,31000
871,ENSEEIHT electronique,1.455808,43.6021194,31000
872,ENSIAME Meca Energ.,3.5147174,50.3248476,59300
873,ENSIAME Mecatronique,3.5147174,50.3248476,59300
874,ENSIAME Info Autom.,3.5147174,50.3248476,59300
875,Commun Polytechnique TSI,2.2112917,48.7142971,91120
876,IFMA Clermont-Fd,3.1127728,45.7576185,63170
877,ISMANS,0.157249,48.019386,72000
878,Telecom INT,2.4433504,48.6249477,91000
879,ENSIETA Brest Mili.,-4.4720707,48.41908,29200
880,Polytech'Tours : Product.,0.6847464999999999,47.3646921,37200
881,ENSTIM Ales,4.0896303,44.1327151,30100
882,ENSTIM TSI,6.4653358,48.194249,88000
883,ENTPE Fonctionnaire,4.9223494,45.77860829999999,69120
884,Polytech 'Orléans-ESEM,1.9390229,47.8440593,45100
885,ESIGELEC,1.0768848,49.3832749,76800
886,ESIM Marseille,5.4371117,43.3424593,13013
887,ISMEA Marseille,5.359122699999999,43.2922073,13007
888,ESIM/ISMEA TSI,12.4974923,41.920563,00198
889,ESTP-TP,2.329933291693428,48.79445900203715,94230
890,ESTP-BAT,2.3174735,48.8889861,75017
891,ESTP MECA-ELEC,2.329933291693428,48.79445900203715,94230
892,ESTP-GEOMETRES,2.3498281,48.8268365,75013
893,ESPCI,2.3475905,48.8412746,75005
894,ESPCI etranger,2.3475905,48.8412746,75005
895,ENS Ulm etranger,2.3451689,48.8422058,75005
896,ENS Cachan etranger,2.1649417,48.7123564,91190
897,ENS Lyon etranger,4.8334497,45.7332787,69342
898,Commun Mines Ponts PC,2.3358177,48.8304214,75014
899,CENTRALE Paris cycle international,2.1661629,48.709445,91190
900,CENTRALE Paris etranger,2.1661629,48.709445,91190
901,CENTRALE Paris handicapés,2.2743878,48.8497097,75016
902,Supelec campus Gif handicapés,2.1653034,48.7097567,91190
903,Supelec campus Gif cycle international,2.1661629,48.709445,91190
904,Supelec campus Gif etranger,2.1661629,48.709445,91190
905,Supelec campus Metz etranger,6.220958,49.10323289999999,57070
906,Supélec Etrangers PC,2.1661629,48.709445,91190
907,Supelec campus Metz cycle international,6.220958,49.10323289999999,57070
908,Supelec campus Metz handicapés,6.220958,49.10323289999999,57070
909,Supelec campus Rennnes handicapés,-1.6234012,48.1252316,35510
910,SUPELEC PC Hd,2.1661629,48.709445,91190
911,Supelec campus Rennnes cycle international,-1.6234012,48.1252316,35510
912,Supelec campus Rennnes etranger,-1.6234012,48.1252316,35510
913,Supelec campus Rennes,-1.6234012,48.1252316,35510
914,CENTRALE Lyon cycle international,4.766499899999999,45.7825983,69134
915,SupOptique etranger,2.2034927,48.71373999999999,91120
916,CENTRALE Lille cycle international,3.1365135,50.6068158,59650
917,ENSEA Cergy handicapés,2.0722879,49.0392814,95000
918,ENTPE Civil,4.9223494,45.77860829999999,69120
919,ENTPE Etr,4.9223494,45.77860829999999,69120
920,ENSC Clermont-Fd,-0.5975148,44.8062267,33400
921,CPE Lyon (Chimie),4.8697515,45.7841601,69100
922,ENSSPICA Marseille,5.36978,43.296482,13002
923,ENSIACET Chimie,1.5010751,43.5548178,31030
924,ENSIACET Mat Procede,1.5010751,43.5548178,31030
925,ENSIACET G. Chimique,1.5010751,43.5548178,31030
926,Commun Polytechn. PC-CH,2.2112917,48.7142971,91120
927,ENSICAEN : informatique,-0.367627,49.214099,14000
928,ENSER Grenoble,5.717421499999999,45.190758,38031
929,ENSP Grenoble,5.7747246,45.1986321,38400
930,ENSIMA Grenoble,5.768265899999999,45.1934574,38400
931,ENSERG-ENSIMAG:Telec,5.768265899999999,45.1934574,38400
932,CPE Lyon (Elec.),4.8697515,45.7841601,69100
933,ENAC Toulouse civil,1.4830052,43.5642909,31400
934,ENAC Fonc Tlse,1.4830052,43.5642909,31400
935,ENSEEIHT Informatique,1.455808,43.6021194,31000
936,ENSEEIHT hydraulique,1.455808,43.6021194,31000
937,ENSEEIHT Telecom.reseau,1.455808,43.6021194,31000
938,ENSIACET G. Pro. Inf,1.5010751,43.5548178,31030
939,ENSIACET G. Industri,1.5010751,43.5548178,31030
940,Commun Polytechn. PC-PH,2.2112917,48.7142971,91120
941,Ecole Navale Brest,-4.4246113,48.28053389999999,29160
942,ENGEES Fonctionnaires,7.758007800000001,48.5849696,67070
943,ENGEES Civils,7.758007800000001,48.5849696,67070
944,ESIEE/ISMEA PC,2.2919749,49.8995592,80080
945,EIVP Fonc. Paris,2.3819219,48.8740846,75019
946,EIVP Civil Paris,2.3819219,48.8740846,75019
947,ENSTIM PC,2.339138,48.8455886,75272
948,ESTP PC,2.329933291693428,48.79445900203715,94230
949,ECOLE LOUIS DE BROG.,1.0678095,49.9179806,76200
950,ESIEA PARIS,2.3784328,48.81446889999999,94200
951,ESIEA Paris-Laval PC,2.3784328,48.81446889999999,94200
952,ESTIT V.D ASCQ,3.1360552,50.6402576,59650
953,ISEB Brest,-4.495553999999999,48.4070554,29200
954,ISEM Toulon,5.9396605,43.1206202,83000
955,ENSIL Limoges E.T.I,1.2952454,45.86102899999999,87280
956,ENSIL Limoges TSME,1.2952454,45.86102899999999,87280
957,ENSSAT Lannion EII,-3.4624262,48.729673,22305
958,ENSSAT Lannion LSI,-3.4624262,48.729673,22305
959,ENSSAT Lannion OPT,-3.4624262,48.729673,22305
960,ESIGEC Chambery GE,1.0768848,49.3832749,76800
961,ESIGEC Chambery IB,5.917781,45.564601,73000
962,ESIGEC Chambery MC,1.0768848,49.3832749,76800
963,ESSI Nice,7.267893,43.701928,06000
964,FIUPSO Paris-Orsay,2.3265614,48.8599614,75007
965,ISITV Toulon IMATH,2.3582236,48.8330427,75013
966,ISPG MATER,-82.4382347,27.462046,34211
967,ISPG TELECOM,76.29698669999999,9.9644619,82036
968,IST Paris6 : Elec.Info.,2.3522219,48.856614,75004
969,IST Paris6 : Matériaux,2.24189,48.89141799999999,92974
970,IST Paris6 GG,2.3522219,48.856614,75004
971,ISTASE Saint-Etienne,4.4244562,45.4238076,42000
972,Polytech Mars. : M.Telec.,-0.5156010999999999,47.5306474,49000
973,Polytech Mars. GII,2.2112917,48.7142971,91120
974,Polytech Mars. ME,2.3577864,48.8462524,75005
975,POLYTECH Marseille PC,5.4431033,43.23194669999999,13009
976,POLYTECH'Nantes MAT,-1.5158639,47.2819356,44300
977,POLYTECH'Nantes SEII,-1.5158639,47.2819356,44300
978,POLYTECH'Nantes SILR,-1.5158639,47.2819356,44300
979,POLYTECH'Nantes TE,-1.5158639,47.2819356,44300
980,Polytech'Orleans-ESPEO,1.9390229,47.8440593,45100
981,Polytech'Tours : info.,0.6847464999999999,47.3646921,37200
982,Polytech'Lille : IAAL,3.1370078,50.6078394,59655
983,ISIM Sc+Tech indus A,4.8418428,45.7256685,69007
984,CUST Genie Biol.,2.3574856,48.8336453,75013
985,CUST Genie Civil,3.1092253,45.7608031,63100
986,CUST Genie Elec.,2.342766,48.7038421,91420
987,CUST Genie Math+Mod,-74.40451689999999,40.4593382,08816
988,CUST Genie Physique,3.1092253,45.7608031,63100
989,Polytech'Lille : G.I.S.,3.1370078,50.6078394,59655
990,Polytech'Lille : G. GC.,3.1370078,50.6078394,59655
991,Polytech'Lille : I.M.A.,3.1370078,50.6078394,59655
992,Polytech'Lille : I. S.,3.1370078,50.6078394,59655
993,Polytech'Lille : Sc.Mat.,3.1370078,50.6078394,59655
994,ISIM Info et Gestion,2.5416916,48.83783529999999,93160
995,ISIM Micro Elec+Auto,1.9449952,48.5713525,78730
996,ISIM Sc+Tech Eau,-81.1637245,33.836081,29172
997,ISIM Sc+Tech Mat,10.8407374,35.7644464,5000
998,Polytech'Grenoble : Géot.,5.752253,45.1846156,38400
999,Polytech'Grenoble : 3 I,5.752253,45.1846156,38400
1000,Polytech'Grenoble :PRIHSE,5.752253,45.1846156,38400
1001,Polytech' Grenoble SciGMa,5.752253,45.1846156,38400
1002,Polytech' Grenoble: T.I.S,5.752253,45.1846156,38400
1003,Reseau Eiffel PC,2.2944813,48.85837009999999,75007
1004,EIPC,2.260415,50.734662,62967
1005,EPMI,-95.4354701,29.7331398,77046
1006,ESIGETEL Fontainebl.,2.3640636,48.7885773,94800
1007,ESITE,-79.88859699999999,32.8057306,29464
1008,ESTIA Bayonne,-1.5511938,43.445714,64210
1009,Supélec PT,2.1661629,48.709445,91190
1010,C.C Mines Ponts PT,2.3358177,48.8304214,75014
1011,ENSAIS G.CLIM ET ENE,7.764898400000001,48.5823052,67000
1012,C.C. ENSAM PT,2.3582236,48.8330427,75013
1013,C.C. POLYTECHNIQUE PT,2.2112917,48.7142971,91120
1014,ESIEA Paris-Laval PT,2.3784328,48.81446889999999,94200
1015,ENSIL Limoges Mecatr,1.2952454,45.86102899999999,87280
1016,ESINSA Nice,7.265186151711138,43.7013988309051,06000
1017,POLYTECH Marseille PT,5.4431033,43.23194669999999,13009
1018,Polytech' Lille : Méca.,3.1370078,50.6078394,59655
1019,Réseau Eiffel PT,2.2944813,48.85837009999999,75007
1020,3IL,1.2722802,45.8187995,87000
1021,Concours des ENSTIM PT,2.339138,48.8455886,75272
1022,EIPI-ISPA,2.3358235,48.872288,75009
1023,ESTP Paris PT,2.3522219,48.856614,75004
1024,ESIM/ISMEA Marseille PT,5.36978,43.296482,13002
1025,MATMECA,-0.6051667,44.80663759999999,33400
1026,Ecole Polytechnique Info. français,2.2112917,48.7142971,91120
1027,Ecole Polytechnique S.I. etranger,2.2112917,48.7142971,91120
1028,Ecole Polytechnique S.I. français,2.2112917,48.7142971,91120
1029,Ecole Polytechnique Info. etranger,2.2112917,48.7142971,91120
1030,ENS Ulm Info,2.3451689,48.8422058,75005
1031,ENS Ulm MPI etranger,2.3451689,48.8422058,75005
1032,ENS Ulm Info etranger,2.3440392,48.8418322,75005
1033,ENS Cachan MP etranger,2.1649417,48.7123564,91190
1034,ENS Cachan Info,2.1649417,48.7123564,91190
1035,ENS Cachan-Ker Lan Info,2.1649417,48.7123564,91190
1036,ENS Cachan Info etranger,2.1649417,48.7123564,91190
1037,ENS Cachan-Ker Lan Info etranger,2.1649417,48.7123564,91190
1038,ENS Cachan info. etr.,2.1649417,48.7123564,91190
1039,ENS Cachan-Ker Lan MP etranger,2.1649417,48.7123564,91190
1040,ENS Lyon Info,4.8334497,45.7332787,69342
1041,ENS Lyon Maths,4.8334497,45.7332787,69342
1042,ENS Lyon Info etranger,4.8334497,45.7332787,69342
1043,Commun Mines Ponts MP,2.3358177,48.8304214,75014
1044,Supelec campus Rennes cycle international,-1.6234012,48.1252316,35510
1045,Supelec campus Renn. etranger,2.1661629,48.709445,91190
1046,Commun Polytechnique MP,2.2112917,48.7142971,91120
1047,ENSAI Rennes civil,-1.7417817,48.05062059999999,35170
1048,ENSAI Rennes fonctionnaire,-1.7417817,48.05062059999999,35170
1049,ENSAI Rennes etranger,-1.7417817,48.05062059999999,35170
1050,ESIEE/ISMEA MP,2.2919749,49.8995592,80080
1051,ENSTIM MP,2.2003541,48.712841,91120
1052,ENSAE Statistique,2.2076467,48.711006,91120
1053,ENSAE Statistique etranger,2.2076467,48.711006,91120
1054,ESTP MP,2.329933291693428,48.79445900203715,94230
1055,ESIEA Paris-Laval MP,2.3784328,48.81446889999999,94200
1056,ISPG INGLO,,,
1057,ISPG MACS,,,
1058,ISPG MAT.TEL MP,,,
1059,POLYTECH Marseille MP,5.4431033,43.23194669999999,13009
1060,POLYTECH Orléans MP,1.9390229,47.8440593,45100
1061,Polytech' Grenoble : RICM,5.752253,45.1846156,38400
1062,Reseau Eiffel MP,2.2944813,48.85837009999999,75007
1063,ENSAR Rennes,-1.706322,48.1135487,35042
1064,FIF Fonct. Nancy,6.1693419,48.6780701,54000
1065,A BIO,2.444786,48.718247,91230
1066,A PC BIO,2.3571437,48.7980808,94800
1067,ENS Ulm ertanger,2.3451689,48.8422058,75005
1068,ENGEES Strasbourg BCPST,7.758007800000001,48.5849696,67070
1069,ESIP GEOL,6.1492879,48.6534173,54518
1070,IST Paris6 IC,2.3522219,48.856614,75004
1071,Reseau Eiffel BCPST,2.2944813,48.85837009999999,75007
1072,ENS CACHAN FIL Science,2.1649417,48.7123564,91190
1073,ENS CACHAN FIL Science etranger,2.1649417,48.7123564,91190
1074,ENS CACHAN FIL. SI,2.1649417,48.7123564,91190
1075,ENS CACHAN FIL. SI etranger,2.1649417,48.7123564,91190
1076,Ecole Polytechnique etranger,2.2112917,48.7142971,91120
1077,Commun Mines Ponts PSI,,,
1078,Supelec campus Metz handicapes,6.220958,49.10323289999999,57070
1079,Supelec campus Rennes handicapés,-1.6234012,48.1252316,35510
1080,SUPELEC PSI handicapes,2.1661629,48.709445,91190
1081,Supelec campus Rennes etranger,-1.6234012,48.1252316,35510
1082,Commun Polytechnique PSI,2.2112917,48.7142971,91120
1083,ESIEE/ISMEA PSI,2.2919749,49.8995592,80080
1084,ENSTIM PSI,2.2112917,48.7142971,91120
1085,ENSAIS G.CIVIL,7.764898400000001,48.5823052,67000
1086,ENSAIS Topo,7.764898400000001,48.5823052,67000
1087,Concours ENSAIS PSI,7.764898400000001,48.5823052,67000
1088,Concours ESTP PSI,,,
1089,ESIEA Paris-Laval PSI,2.3784328,48.81446889999999,94200
1090,ISPG PSI,,,
1091,POLYTECH Marseille PSI,5.4431033,43.23194669999999,13009
1092,Réseau Eiffel PSI,2.2944813,48.85837009999999,75007
1093,ENS Paris-Saclay PC,2.1649417,48.7123564,91190
1094,CentraleSupélec-statut étudiant,2.1661629,48.709445,91190
1095,CentraleSupélec-statut étudiant-étr.,2.1661629,48.709445,91190
1096,CentraleSupélec-statut étudiant-CI,2.1661629,48.709445,91190
1097,Arts et Métiers-voie de l'apprentissage,2.3582236,48.8330427,75013
1098,ESTP Paris-Travaux Publics (TP)-campus de Cachan,2.331433,48.791855,94230
1099,ESTP Paris-Bâtiment (B)-campus de Cachan,2.331433,48.791855,94230
1100,ESTP Paris-Génie Mécanique et Electrique(GME),2.3522219,48.856614,75004
1101,ESTP Paris-Topographie (T),2.3522219,48.856614,75004
1102,ESTP Paris-Bâtiment (B)-campus de Troyes,4.0744009,48.2973451,10000
1103,ESTP Paris-Travaux Publics (TP)-campus de Dijon,5.0670056,47.3173811,21000
1104,ENSAE Paris,2.2076467,48.711006,91120
1105,ENSTA Paris,2.2180501,48.7107339,91120
1106,ENSTA Paris-apprentissage,2.2180501,48.7107339,91120
1107,IMT Atlantique cursus Brest-Nantes-Rennes-Toulouse,-1.5208446,47.2822842,44300
1108,IMT Atlantique cursus Sophia Antipolis,7.071124999999999,43.614386,06410
1109,MINES SAINT-ETIENNE,4.408427,45.4225457,42100
1110,TELECOM Paris cursus Paris,2.2004477,48.7128764,91120
1111,TELECOM Paris cursus Sophia,2.2004477,48.7128764,91120
1112,IMT Mines Albi,2.178954,43.922508,81000
1113,IMT Mines Alès,4.0896303,44.1327151,30100
1114,ENSTA Bretagne (filière sous statut étudiant),-4.4720707,48.41908,29200
1115,IMT Lille Douai,3.0676659,50.3755213,59500
1116,Télécom Physique Strasbourg Informatique et Réseaux,7.7377182,48.5254976,67400
1117,Télécom Physique Strasbourg TI-Santé,7.7377182,48.5254976,67400
1118,TELECOM SudParis,2.4433504,48.6249477,91000
1119,ENSTA Bretagne (filière sous statut IETA-Direction Générale de l'Armement),-4.4720707,48.41908,29200
1120,IMT Lille Douai Fonct.,3.0676659,50.3755213,59500
1121,Bordeaux INP-ENSC Cognitique,-0.5975148,44.8062267,33400
1122,CPE LYON Sciences du numérique,4.8697515,45.7841601,69100
1123,Lorraine INP-ENSEM-Energie,6.1342988,48.6543335,54500
1124,Lorraine INP-ENSEM-Spécialité des systèmes numériques,6.1342988,48.6543335,54500
1125,Toulouse INP-ENSEEIHT-Electronique-Energie-Automatique (EEA),1.455808,43.6021194,31000
1126,Toulouse INP-ENSEEIHT-Mécanique des Fluides-Energetique-Environnement (MFEE),1.455808,43.6021194,31000
1127,Toulouse INP-ENSEEIHT-Sciences du Numérique,1.455808,43.6021194,31000
1128,Toulouse INP-ENSIACET-Génie des Procédés,1.5010751,43.5548178,31030
1129,Toulouse INP-ENSIACET-Génie Industriel,1.5010751,43.5548178,31030
1130,Bordeaux INP-ENSCBP Chimie-Génie physique,-0.6111213,44.8011924,33607
1131,CPE LYON Chimie – génie des procédés,4.8697515,45.7841601,69100
1132,ENSI Poitiers-Génie de l'Eau et Génie Civil,0.3832459,46.5688039,86022
1133,Lorraine INP-ENSIC,6.1342988,48.6543335,54500
1134,SIGMA Clermont-Ferrand-spécialité chimie,3.1165883,45.7618958,63170
1135,Toulouse INP-ENSIACET-Chimie,1.5010751,43.5548178,31030
1136,Toulouse INP-ENSIACET-Génie chimique,1.5010751,43.5548178,31030
1137,Toulouse INP-ENSIACET-Matériaux,1.5010751,43.5548178,31030
1138,ENSIL-ENSCI Limoges Céramique Industrielle,1.2952454,45.86102899999999,87280
1139,ENSIL-ENSCI Limoges EE,1.2952454,45.86102899999999,87280
1140,ENSIL-ENSCI Limoges ELT,1.2952454,45.86102899999999,87280
1141,ENSIL-ENSCI Limoges Matériaux,1.2952454,45.86102899999999,87280
1142,ENSIL-ENSCI Limoges Mécatronique,1.2952454,45.86102899999999,87280
1143,Lorraine INP-EEIGM,6.1934152,48.6955015,54000
1144,Lorraine INP-ENSGSI,6.1936569,48.6949818,54000
1145,ENAC Toulouse-Contrôleurs aériens,1.4830052,43.5642909,31400
1146,ENSISA Mulhouse Automatique et Systèmes Embarqués,7.310896100000001,47.7290842,68093
1147,ESCOM Chimie Compiègne,2.8024088,49.4019571,60200
1148,Lorraine INP-ENSTIB,6.4653358,48.194249,88000
1149,ESGT le Mans,0.1546634,48.0188967,72000
1150,ESI Reims-Energetique,4.0645583,49.2377566,51100
1151,ESI Reims-Génie Urbain et Environnement,4.0645583,49.2377566,51100
1152,ESI Reims-Packaging,4.0645583,49.2377566,51100
1153,ESIPE Créteil-Génie Biomédical et santé (ISBS),2.4539208,48.7951184,94000
1154,ESIPE Créteil-Système d'information,2.4435873,48.7950367,94000
1155,ESIPE Créteil-Technologie pour la santé,2.4435873,48.7950367,94000
1156,ESIROI Saint Denis de La Réunion,55.49073199999999,-21.3403709,97410
1157,ESIX Normandie-Caen-Cherbourg,-1.6442149,49.6343438,50130
1158,ISAT Nevers-Infrastructures et Réseaux de Transports,3.1714703,46.997819,58027
1159,ISIFC Besançon-Génie Biomédical,5.996239999999999,47.2505339,25000
1160,"Polytech Angers Bâtiment : Exploitation, Maintenance et Sécurité",-0.592078,47.48052490000001,49000
1161,Polytech Angers Qualité Innovation Fiabilité,-0.592078,47.48052490000001,49000
1162,Polytech Angers Systèmes Automatisés et Génie Informatique,-0.592078,47.48052490000001,49000
1163,Polytech Annecy-Chambéry-Informatique données Usages,6.1577674,45.91949779999999,74940
1164,Polytech Grenoble-Informatique,5.752253,45.1846156,38400
1165,Polytech Grenoble-Informatique et électronique des systèmes embarqués,5.752253,45.1846156,38400
1166,Polytech Lyon-Génie Biomédical,4.8683428,45.7791677,69100
1167,Polytech Montpellier-Microélectronique et Automatique,3.8625953,43.6327433,34095
1168,Polytech Montpellier Génie biologique et agroalimentaire,3.8625953,43.6327433,34095
1169,"Polytech Nancy-Energie, Mécanique, Matériaux, Environnement",6.1883149,48.6597371,54519
1170,Polytech Nancy-Ingénierie de l'Information et des Systèmes,6.1883149,48.6597371,54519
1171,"Polytech Nancy-Management opérationnel, Maintenance, Maîtrise des risques",6.1883149,48.6597371,54519
1172,Polytech Orléans-Génie physique et systèmes embarqués,1.9390229,47.8440593,45100
1173,"Polytech Paris-Saclay-Electronique, Energie, Systèmes",2.1712321,48.70902239999999,91190
1174,Polytech Paris-Saclay-Informatique,2.1712321,48.70902239999999,91190
1175,Polytech Paris-Saclay-Photonique et systèmes optroniques,2.1712321,48.70902239999999,91190
1176,Polytech Paris-Saclay-Matériaux,2.1712321,48.70902239999999,91190
1177,Polytech Sorbonne-Electronique et Informatique,2.3577864,48.8462524,75005
1178,Polytech Sorbonne-Matériaux,2.3577864,48.8462524,75005
1179,Polytech Sorbonne-Mathématiques Appliquées et Informatique,2.3577864,48.8462524,75005
1180,Polytech Sorbonne-Robotique,2.3577864,48.8462524,75005
1181,Polytech Sorbonne-Sciences de la Terre,2.3577864,48.8462524,75005
1182,Polytech Tours-Génie de l'aménagement et de l'environnement,0.6804247999999999,47.3669523,37200
1183,ELISA Aérospace Saint Quentin (80),3.2871557,49.8493814,02100
1184,ESAIP Angers / Aix-en-Provence,5.4313864,43.5276845,13090
1185,ESEO Angers-Paris Vélizy,2.2101606,48.7841282,78140
1186,ISEN Yncréa Méditerrannée-Nîmes,4.3685006,43.8212608,30000
1187,ISEN Yncréa Méditerrannée-Toulon,5.9396605,43.1206202,83000
1188,ISEN Yncréa Ouest-Brest,-4.495413,48.4069136,29200
1189,ISEN Yncréa Ouest-Nantes,-1.5050566,47.27479640000001,44300
1190,ECE LYON,4.840311,45.7511138,69007
1191,ECE PARIS (statut apprentissage),2.2864819,48.8517668,75015
1192,UniLasalle – Rennes EME,-1.7456352,48.0442451,35170
1193,UniLaSalle Beauvais-Sciences de la Terre et Environnement,2.0677276,49.460984,60000
1194,EIL Côte d'Opale-Dunkerque (Génie Energétique et Environnement),1.880568,50.9525945,62100
1195,IMT Lille Douai en Partenariat ISPA,3.0681426,50.3750864,59508
1196,ISMANS-Groupe CESI Le Mans,0.1574687,48.0195628,72000
1197,Paoli Tech,9.1528844,42.2985779,20250
1198,Toulouse INP-ENIT,0.0512515999999999,43.2249893,65000
1199,INSA Hauts de France Génie civil et bâtiment,3.5147174,50.3248476,59300
1200,INSA Hauts de France Informatique et Cybersécurité,3.5147174,50.3248476,59300
1201,INSA Hauts de France Mécanique et Energétique,3.5147174,50.3248476,59300
1202,INSA Hauts de France Génie Industriel,3.5147174,50.3248476,59300
1203,INSA Hauts de France Mécatronique,3.5147174,50.3248476,59300
1204,ESITech Rouen Technologies du Vivant,1.06966,49.3861369,76800
1205,INSA Lyon Biosciences,4.8736741,45.7817486,69100
1206,INSA Toulouse Génie Biologique,1.4680904,43.5703326,31400
1207,ISIS Castres Informatique pour la Santé,2.2691342,43.6247406,81104
1208,INSA Lyon Génie Energétique et Environnement,4.8733716,45.783179,69100
1209,INSA Rouen Normandie Chimie et Procédés,1.0683257,49.3849757,76800
1210,INSA Rouen Normandie Energétique et Propulsion,1.0683257,49.3849757,76800
1211,INSA Rouen Normandie Maîtrise des Risques Industriels,1.0683257,49.3849757,76800
1212,INSA Strasbourg Génie Climatique et Energétique,7.764898400000001,48.5823052,67000
1213,INSA Toulouse Génie des Procédés et environnement,1.4680904,43.5703326,31400
1214,Sup'EnR Perpignan Energétique et Energies Renouvelables,2.9100013,42.663689,66100
1215,INSA Euro-Méditerranée Maroc Génie Electrique,-5.0647549,34.0449981,30105
1216,INSA Lyon Génie Electrique,4.8719195,45.7829613,69100
1217,INSA Rennes Electronique et Informatique Industrielle,-1.635663,48.12085219999999,35700
1218,INSA Rennes Système et Réseaux de Communication,-1.635663,48.12085219999999,35700
1219,INSA Strasbourg Génie Electrique,7.764898400000001,48.5823052,67000
1220,INSA Toulouse Automatique et Electronique,1.4680904,43.5703326,31400
1221,INSA Lyon Génie Civil et Urbanisme,4.876179,45.7837466,69100
1222,INSA Rennes Génie Civil et Urbain,-1.635663,48.12085219999999,35700
1223,INSA Rouen Normandie Génie Civil et constructions durables,1.0683257,49.3849757,76800
1224,INSA Strasbourg Génie Civil,7.764898400000001,48.5823052,67000
1225,INSA Strasbourg Topographie,7.764898400000001,48.5823052,67000
1226,INSA Toulouse Génie Civil,1.4680904,43.5703326,31400
1227,INSA Centre Val de Loire Sécurité et Technologies Informatiques,1.3256882,47.5845012,41000
1228,INSA Euro-Méditerranée Maroc Systèmes d'Information et de Communication,-5.0647549,34.0449981,30105
1229,"INSA Lyon Télécommunications, services et usages",4.8726894,45.7837962,69100
1230,INSA Rennes Informatique,-1.634211,48.12030619999999,35043
1231,INSA Rouen Normandie Architecture des Systèmes d'Information,1.0683257,49.3849757,76800
1232,INSA Rouen Normandie Génie Mathématique,1.0683257,49.3849757,76800
1233,INSA Toulouse Informatique et Réseaux,1.4680904,43.5703326,31400
1234,INSA Toulouse Mathématiques appliquées,1.4680904,43.5703326,31400
1235,INSA Centre Val de Loire Génie des Systèmes Industriels,1.3256882,47.5845012,41000
1236,INSA Euro-Méditerranée Maroc Génie Mécanique et Energétique,-5.0647549,34.0449981,30105
1237,INSA Lyon Génie Industriel,4.873993899999999,45.7827663,69100
1238,INSA Lyon Génie Mécanique,4.8754063,45.78216,69100
1239,INSA Rennes Génie Mécanique et Automatique,-1.635663,48.12085219999999,35700
1240,INSA Rouen Normandie Mécanique,1.0683257,49.3849757,76800
1241,INSA Strasbourg Génie Mécanique,7.764898400000001,48.5823052,67000
1242,INSA Strasbourg Mécatronique,7.764898400000001,48.5823052,67000
1243,INSA Strasbourg Plasturgie,7.764898400000001,48.5823052,67000
1244,INSA Toulouse Génie Mécanique,1.4680904,43.5703326,31400
1245,ESITech Rouen Génie Physique,1.06966,49.3861369,76800
1246,INSA Centre Val de Loire Maîtrise des Risques Industriels,1.3256882,47.5845012,41000
1247,INSA Lyon Science et Génie des Matériaux,4.8729103,45.7815713,69100
1248,INSA Rennes Science et Génie des Matériaux,-1.635663,48.12085219999999,35700
1249,INSA Toulouse Génie Physique,1.4680904,43.5703326,31400
1250,CESI Angoulême,0.1215267,45.6292834,16400
1251,CESI Arras,2.7338488,50.2964498,62000
1252,CESI Bordeaux,-0.5774494,44.8650603,33300
1253,CESI Lyon,4.882798,45.7834002,69100
1254,CESI Rouen,1.0751564,49.3823959,76800
1255,CESI Nancy,6.132499,48.65523640000001,54500
1256,CESI Nanterre,2.192766,48.9030531,92000
1257,CESI Nice Sophia Antipolis,7.244761500000001,43.6955458,06000
1258,CESI Saint-Nazaire,-2.2580048,47.252859,44600
1259,CESI Aix-en-Provence,5.3863764,43.4812842,13290
1260,CESI La Rochelle,-1.1467337,46.1847625,17140
1261,CESI Lille,3.0711913,50.6283454,59800
1262,CESI Orléans,1.9407103,47.8453408,45100
1263,CESI Pau,-0.309283,43.3179041,64000
1264,CESI Reims,4.031696,49.258329,51100
1265,CESI Strasbourg,7.694512100000001,48.5605632,67380
1266,CESI Toulouse,1.5028242,43.5483358,31670
1267,Polytech Angers Génie Biologique et Santé,-0.592078,47.48052490000001,49000
1268,ENS Paris-Saclay,2.1649417,48.7123564,91190
1269,ENS Ulm PSI,2.3451689,48.8422058,75005
1270,Bordeaux INP-ENSPIMA,-0.717946,44.839236,33700
1271,SIGMA Clermont-Ferrand-spécialité mécanique avancée,3.1165883,45.7618958,63170
1272,CentraleSupélec-Campus Metz,6.220958,49.10323289999999,57070
1273,Bordeaux INP-ENSCBP Agroalimentaire-Génie biologique,-0.6111213,44.8011924,33607
1274,Polytech Sorbonne-Agroalimentaire,2.3577864,48.8462524,75005
1275,ENS Paris-Saclay MP,2.1649417,48.7123564,91190
1276,ENS Paris-Saclay Info.,2.1649417,48.7123564,91190
1277,INSA Lyon Informatique,4.8729103,45.7815713,69100
1278,INSA Rennes Génie Mathématique,-1.635663,48.12085219999999,35700
1279,CentraleSupélec-cursus apprenti-Campus Metz,6.220958,49.10323289999999,57070
1280,CentraleSupélec-cursus apprenti-Campus Rennes,-1.6234012,48.1252316,35510
1281,ENSM Site de Nantes,-1.5495565,47.24833839999999,44300
1282,Agrocampus Rennes (ENSAR),-1.7102321,48.1264244,35000
1283,INH-ENSHAP Angers,-0.6058392,47.4791574,49000
1284,ENESAD Dijon (Fonctionnaire),5.04148,47.322047,21000
1285,ENESAD Dijon (Civil),5.04148,47.322047,21000
1286,POLYTECH Orlans EO,1.9390229,47.8440593,45100
1287,POLYTECH Orlans GCE,1.9390229,47.8440593,45100
1288,POLYTECH Orlans ME,1.9390229,47.8440593,45100
1289,concours Polytech'Orlans G2E-BCPST,1.9390229,47.8440593,45100
1290,ENIAA,25.7570866,62.2408879,40100
1291,ISIFC Besanon,5.996239999999999,47.2505339,25000
1292,Concours ARCHIMEDE,-6.845838,33.998281,10000
1293,POLYTECH Clermont-Ferrand Gnie Biologique,3.1092253,45.7608031,63100
1294,POLYTECH Grenoble Got.,5.752253,45.1846156,38400
1295,POLYTECH Nice-Sophia-Gnie Biologique,7.0717782,43.6155521,06410
1296,POLYTECH Tours Amnag.,0.6847464999999999,47.3646921,37200
1297,Concours POLYTECH-ARCHIMEDE,2.3577864,48.8462524,75005
1298,Suplec,28.1917629,-25.8738399,0169
1299,TELECOM SudParis (ex Tlcom INT),2.4433504,48.6249477,91000
1300,Ponts et Chausses,2.588727,48.840563,77420
1301,Techniques avances,2.2180501,48.7107339,91120
1302,ENSMM Besanon,5.9936082,47.2512183,25000
1303,ENSEIR Bordeaux Tlecom.,-0.6051667,44.80663759999999,33400
1304,ENSICAEN Electronique et Physique Applique,-0.367627,49.214099,14000
1305,ENSEEIHT Toulouse Gnie Electrique,1.455808,43.6021194,31000
1306,ENSIAME Valenciennes Informatique et Management des systmes,3.5147174,50.3248476,59300
1307,ENSIAME Valenciennes Mca Energ.,3.5147174,50.3248476,59300
1308,ENSIAME Valenciennes Mcatronique,3.5147174,50.3248476,59300
1309,ENSISA Mulhouse Informatique et rseaux,7.310896100000001,47.7290842,68093
1310,ENSISA Mulhouse Mcanique et systmes,7.310896100000001,47.7290842,68093
1311,ENSISA Mulhouse Systme et signaux,7.310896100000001,47.7290842,68093
1312,ENSISA Mulhouse Textile et Habillement,7.310896100000001,47.7290842,68093
1313,ENSTIM Als,2.1649417,48.7123564,91190
1314,"ENSTIM Albi, Als, Douai, Nantes",-1.553621,47.218371,44000
1315,POLYTECH Lille Mca.,3.1370078,50.6078394,59655
1316,POLYTECH Marseille Gnie Civil,5.4431033,43.23194669999999,13009
1317,POLYTECH Marseille M. Tlec.,5.4431033,43.23194669999999,13009
1318,POLYTECH Nantes Gnie civil,-1.5158639,47.2819356,44300
1319,Grenoble INP-Phelma (Physique Matriaux Procds),5.710399499999999,45.1949333,38000
1320,Grenoble INP-Phelma (Physique Electronique Tlcoms),5.710399499999999,45.1949333,38000
1321,ENSEEIHT Toulouse Tlcom.rseaux,1.455808,43.6021194,31000
1322,ENSIACET Toulouse Gnie des Procds,1.5010751,43.5548178,31030
1323,ENSIACET Toulouse Gnie chimique,1.5010751,43.5548178,31030
1324,ENSIACET Toulouse Gnie Industriel,1.5010751,43.5548178,31030
1325,ENSIACET Toulouse Matriaux,1.5010751,43.5548178,31030
1326,Grenoble INP-Gnie Industriel,5.7175052,45.1908463,38000
1327,ECOLE DE L'AIR Mca,5.1130749,43.6199016,13300
1328,ENSAI Rennes Fonctionnaire (Attach INSEE),-1.7417817,48.05062059999999,35170
1329,ECOLE METEOROLOGIE (fonctionnaire),1.3776632,43.5739021,31100
1330,"Ecoles des Mines d'Albi, Als, Douai, Nantes",-1.5208446,47.2822842,44300
1331,ENSIL Limoges Mcatronique,1.2952454,45.86102899999999,87280
1332,ESIL Marseille Biomdical,5.4440806,43.2332509,13009
1333,ESIREM Dijon Info-lec.,5.073972299999999,47.3121732,21000
1334,ISITV Toulon Ingnierie Marine,6.0117444,43.1362623,83130
1335,ISITV Toulon Ingnierie des Matriaux,6.0117444,43.1362623,83130
1336,ISITV Toulon Tlcommunications,5.9298268,43.1219996,83000
1337,POLYTECH Clermont-Ferrand Gnie Civil,3.1092253,45.7608031,63100
1338,POLYTECH Montpellier Matr.,3.8625953,43.6327433,34095
1339,POLYTECH Nice-Sophia-Math. App. et Modlisation,7.0717782,43.6155521,06410
1340,POLYTECH Paris UPMC Matriaux,2.3577864,48.8462524,75005
1341,EIPI-ISPA Alenon,0.0587716999999999,48.4442826,61250
1342,Concours Commun Polytechnique,,,
1343,ISAT Nevers,3.1714703,46.997819,58027
1344,ENSIL Limoges Matriaux,1.2952454,45.86102899999999,87280
1345,AgroParisTech (INA P-G),2.3476575,48.8397733,75005
1346,AgroParisTech (ENSIA Massy),2.2971869,48.7326036,91744
1347,AgroParisTech (FIF Fonctionnaire Nancy),6.187846,48.6937988,54000
1348,AgroParisTech (FIF Civil Nancy),6.187846,48.6937988,54000
1349,concours ESIP G2E-BCST,,,
1350,concours Polytech'Orléans G2E-BCPST,1.9390229,47.8440593,45100
1351,Concours A (6 écoles d'Archimède),,,
1352,Concours P (7 Polytech),2.2112917,48.7142971,91120
1353,ENSIAME Valenciennes Informatique Industrielle et Productique,3.5147174,50.3248476,59300
1354,EISTI Cergy-Pau PSI,2.0697464,49.0350546,95000
1355,ENSISA Mulhouse Mécanique et systèmes,7.310896100000001,47.7290842,68093
1356,ECOLE METEOROLOGIE (non fonctionnaire),1.3776632,43.5739021,31100
1357,Concours A (14 écoles d'Archimède),,,
1358,Concours P (11 Polytech),2.1712321,48.70902239999999,91190
1359,ENIVL Blois,1.3359475,47.58609209999999,41000
1360,concours ESIEA Paris-Laval,2.3784328,48.81446889999999,94200
1361,Concours A (11 écoles d'Archimède),,,
1362,EISTI Cergy-Pau PT,2.0697464,49.0350546,95000
1363,ENSISA Mulhouse PT,7.310896100000001,47.7290842,68093
1364,EISTI Cergy-Pau PC,2.0697464,49.0350546,95000
1365,EISTI Cergy-Pau MP,2.0697464,49.0350546,95000
1366,INSA Euro-Méditerranée Génie Electrique,2.3582236,48.8330427,75013
1367,INSA Euro-Méditerranée Systèmes d'Information et de Communication,2.382824,48.8267406,75013
1368,INSA Euro-Méditerranée Génie Mécanique et Energétique,5.631623299999999,46.2515334,01100
1369,CentraleSupélec-Statut étudiant,2.1661629,48.709445,91190
1370,CentraleSupélec-Statut étudiant-étr.,2.1661629,48.709445,91190
1371,CentraleSupélec-Campus étudiant-CI,2.1661629,48.709445,91190
1372,ENSTA ParisTech-apprentissage,2.2180501,48.7107339,91120
1373,Toulouse INP-ENSEEIHT-Mécanique desFluides-Energetique-Environnement (MFEE),1.455808,43.6021194,31000
1374,Télécom Physique Strasbourg Réseaux et Télécoms,7.7377182,48.5254976,67400
1375,ISAT Nevers-département MIT (Mécanique et Ingénierie desTransports),3.1714703,46.997819,58027
1376,"Polytech Annecy-Chambéry-Instrumentation, Automatique,Informatique",6.1577674,45.91949779999999,74940
1377,Polytech Grenoble-Informatique et électronique des systèmesembarqués,5.752253,45.1846156,38400
1378,Polytech Lille-Ingénierie et commercialisation des systèmes demesure,3.1370078,50.6078394,59655
1379,"Polytech Nancy-Management opérationnel, Maintenance, Maîtrise desrisques",6.1883149,48.6597371,54519
1380,"Polytech Orléans-Technologies pour l'Énergie, l'Aérospatial et laMotorisation",1.9390229,47.8440593,45100
1381,CESI Mont-Saint-Aignan,1.079798,49.459778,76130
1382,CentraleSupélec-statut étudiant étr.,2.1661629,48.709445,91190
1383,CentraleSupélec-Campus étudiant,2.1661629,48.709445,91190
1384,"Polytech Nancy-Management opérationnel, Maintenance, Maîtrisedesrisques",6.1883149,48.6597371,54519
1385,"Polytech Orléans-Technologies pour l'Énergie, l'Aérospatial etlaMotorisation",1.9390229,47.8440593,45100
1386,INSA Euro-Méditerranée Systèmes d'Information et deCommunication,2.2003541,48.712841,91120
1387,EGIM,2.3208369,48.8841019,75017
1388,Ecole Meteorologie,1.3776632,43.5739021,31100
1389,ENSGI,5.7175052,45.1908463,38000
1390,ENSGSI,6.1936569,48.6949818,54000
1391,ESM ST CYR,-2.1498977,47.94579,56380
1392,EISTI Cergy PSI,2.0697464,49.0350546,95000
1393,ESIREM Dijon Info-Elec,5.073972299999999,47.3121732,21000
1394,Polytech'Montpellier Micro Elec+Auto,3.8625953,43.6327433,34095
1395,Polytech'Montpellier Info et Gestion,3.8625953,43.6327433,34095
1396,POLYTECH-EIFFEL PSI,2.2112917,48.7142971,91120
1397,ESITC CAEN,-0.366253,49.2161925,14610
1398,C.C. A BIO,2.3093219,48.8447835,75015
1399,C.C. A PC BIO,2.2819178,48.8627234,75116
1400,ESIL Marseille Biotech. Info.,5.4440806,43.2332509,13009
1401,Polytech'Montpellier Sc+Tech indus A,3.8625953,43.6327433,34095
1402,Polytech'Montpellier Sc+Tech Eau,3.8625953,43.6327433,34095
1403,Polytech' Grenoble: GEOTEC,5.752253,45.1846156,38400
1404,ENS Cachan MP Etg,2.1649417,48.7123564,91190
1405,EISTI Cergy-Pontoise MP,2.0697464,49.0350546,95000
1406,ESIREM Dijon Info/Elec,5.073972299999999,47.3121732,21000
1407,Polytech'Montpellier Sc+Tech Mat,3.8625953,43.6327433,34095
1408,POLYTECH-EIFFEL MP,2.3577864,48.8462524,75005
1409,SUPELEC Metz Hd TSI,6.220958,49.10323289999999,57070
1410,ECP Hd. TSI,2.3480128,48.8474424,75005
1411,SUPELEC Rennes Hd TSI,-1.6234012,48.1252316,35510
1412,SUPELEC Gif Hd TSI,2.1661629,48.709445,91190
1413,SUPELEC Hd TSI,2.1661629,48.709445,91190
1414,ENSI Bourges TSI,2.398782,47.081012,18000
1415,EISTI Cergy-Pontoise PT,2.0697464,49.0350546,95000
1416,POLYTECH-EIFFEL PT,2.3577864,48.8462524,75005
1417,ENS Ulm PC,2.3309079,48.8222512,75014
1418,ENS Ulm etranger PC,2.3451689,48.8422058,75005
1419,ENS Lyon PC,4.8334497,45.7332787,69342
1420,ENS Lyon etranger PC,4.8334497,45.7332787,69342
1421,EISTI Cergy-Pontoise PC,2.0697464,49.0350546,95000
1422,POLYTECH-EIFFEL PC,2.3577864,48.8462524,75005
1423,ENSIP Poitiers Eau et Genie Civil,0.3832459,46.5688039,86022
1424,ENSIP Poitiers Energie,0.3832459,46.5688039,86022
1425,Ecole des Mines d'Albi (voie du concours Banque Mines-Ponts),2.178954,43.922508,81000
1426,Ecole des Mines d'Alès (voie du concours Banque Mines-Ponts),4.0896303,44.1327151,30100
1427,Ecole des Mines Douai (voie du concours Banque Mines-Ponts),3.0676659,50.3755213,59500
1428,Ecole des Mines Nantes (voie du concours Banque Mines-Ponts),-1.5208446,47.2822842,44300
1429,Ecole des Mines d'Albi (voie du concours Mines-Ponts),2.178954,43.922508,81000
1430,Ecole des Mines d'Alès (voie du concours Mines-Ponts),4.0896303,44.1327151,30100
1431,Ecole des Mines Douai (voie du concours Mines-Ponts),3.0676659,50.3755213,59500
1432,Ecole des Mines Nantes (voie du concours Mines-Ponts),-1.5208446,47.2822842,44300
1433,ISAT Nevers-département Energétique Propulsion Electronique pour l¿Environnement (EP2E),3.1714703,46.997819,58027
1434,"Polytech Annecy-Chambéry Environnement, Bâtiment, Énergie",6.1577674,45.91949779999999,74940
1435,"Polytech Annecy-Chambéry Instrumentation, Automatique, Informatique",6.1577674,45.91949779999999,74940
1436,"Polytech Annecy-Chambéry Mécanique, Matériaux",6.1577674,45.91949779999999,74940
1437,Polytech Clermont-Ferrand Génie Civil,3.1092253,45.7608031,63100
1438,"Polytech Clermont-Ferrand Mathématiques, Physique, Électronique",3.1092253,45.7608031,63100
1439,Polytech Grenoble Géotechnique,5.752253,45.1846156,38400
1440,"Polytech Grenoble Informatique industrielle, Instrumentation",5.752253,45.1846156,38400
1441,Polytech Grenoble Matériaux,5.752253,45.1846156,38400
1442,Polytech Grenoble Prévention des risques,5.752253,45.1846156,38400
1443,Polytech Grenoble Réseaux informatiques,5.752253,45.1846156,38400
1444,Polytech Grenoble Technologies de l'information pour la santé,5.752253,45.1846156,38400
1445,"Polytech Lille Géotechnique, Génie civil",3.1370078,50.6078394,59655
1446,Polytech Lille Informatique et statistique,3.1370078,50.6078394,59655
1447,"Polytech Lille Informatique, Microélectronique, Automatique",3.1370078,50.6078394,59655
1448,Polytech Lille Matériaux,3.1370078,50.6078394,59655
1449,Polytech Lille Mécanique,3.1370078,50.6078394,59655
1450,Polytech Lille Systèmes de mesure et commercialisation,3.1370078,50.6078394,59655
1451,Polytech Marseille Génie civil,5.4431033,43.23194669999999,13009
1452,"Polytech Marseille Génie industriel, Informatique",5.4431033,43.23194669999999,13009
1453,Polytech Marseille Microélectronique et télécommunications,5.4431033,43.23194669999999,13009
1454,Polytech Marseille Mécanique et énergétique,5.4431033,43.23194669999999,13009
1455,Polytech Montpellier Informatique et gestion,3.8625953,43.6327433,34095
1456,Polytech Montpellier Matériaux,3.8625953,43.6327433,34095
1457,Polytech Montpellier Mécanique,3.8625953,43.6327433,34095
1458,Polytech Montpellier Sciences et technologies de l'eau,3.8625953,43.6327433,34095
1459,"Polytech Montpellier Électronique, Robotique, Informatique industrielle",3.8625953,43.6327433,34095
1460,Polytech Montpellier Énergies renouvelables,3.8625953,43.6327433,34095
1461,Polytech Nantes Génie civil,-1.5158639,47.2819356,44300
1462,Polytech Nantes Génie électrique,-1.5158639,47.2819356,44300
1463,Polytech Nantes Informatique,-1.5158639,47.2819356,44300
1464,Polytech Nantes Matériaux,-1.5158639,47.2819356,44300
1465,"Polytech Nantes Thermique, Énergétique",-1.5158639,47.2819356,44300
1466,Polytech Nantes Électronique et technologies numériques,-1.5158639,47.2819356,44300
1467,Polytech Nice-Sophia Génie de l'eau,7.0717782,43.6155521,06410
1468,Polytech Nice-Sophia Informatique,7.0717782,43.6155521,06410
1469,Polytech Nice-Sophia Mathématiques appliquées et modélisation,7.0717782,43.6155521,06410
1470,Polytech Nice-Sophia Électronique,7.0717782,43.6155521,06410
1471,"Polytech Orléans Génie civil, Géosciences, Environnement",1.9390229,47.8440593,45100
1472,"Polytech Orléans Mécanique, Matériaux, Énergétique",1.9390229,47.8440593,45100
1473,Polytech Orléans Écotechnologies électroniques et optiques,1.9390229,47.8440593,45100
1474,Polytech Paris-Sud Informatique,2.1712321,48.70902239999999,91190
1475,Polytech Paris-Sud Électronique et systèmes embarqués,2.1712321,48.70902239999999,91190
1476,Polytech Paris-UPMC Matériaux (Chimie),2.3577864,48.8462524,75005
1477,Polytech Paris-UPMC Robotique,2.3577864,48.8462524,75005
1478,Polytech Paris-UPMC Sciences de la Terre,2.3577864,48.8462524,75005
1479,"Polytech Paris-UPMC Électronique, Informatique, Systèmes embarqués",2.3577864,48.8462524,75005
1480,Polytech Tours Aménagement,0.6804406,47.367025,37200
1481,Polytech Tours Informatique,0.6877878,47.3645904,37200
1482,"Polytech Tours Mécanique, Conception de systèmes",0.6877878,47.3645904,37200
1483,"Polytech Tours Électronique, Énergie électrique",0.6877878,47.3645904,37200
1484,ESME-Sudria-Ivry,2.3929998,48.8140771,94200
1485,ENSCBP Bordeaux,-0.6111213,44.8011924,33607
1486,Ecole des Mines Douai¥ (voie du concours Mines-Ponts),3.0676659,50.3755213,59500
1487,Polytech Clermont-Ferrand Génie biologique,3.1092253,45.7608031,63100
1488,Polytech Lille Génie biologique et alimentaire,3.1370078,50.6078394,59655
1489,Polytech Montpellier Industries alimentaires,3.8625953,43.6327433,34095
1490,Polytech Nice-Sophia Génie biologique,7.0717782,43.6155521,06410
1491,Polytech Paris-Sud Matériaux,2.1712321,48.70902239999999,91190
1492,Polytech Paris-Sud Optronique,2.1712321,48.70902239999999,91190
1493,ENITAC Clermont-Ferrand-VetAgro Sup (Fonctionnaire),3.1762589,45.7758304,63370
1494,ENITAC Clermont-Ferrand-VetAgro Sup (Civil),3.1762589,45.7758304,63370
1495,ENITIAA Nantes-Oniris,-1.5659892,47.2635201,44300
1496,ENV Lyon-VetAgro Sup,4.7072663,45.7921752,69280
1497,ENV Nantes-Oniris,-1.5227746,47.2891843,44300
1498,Polytech Paris-UPMC Agroalimentaire,2.3577864,48.8462524,75005
1499,Ecole des Mines Douai(voie du concours Mines-Ponts),3.0676659,50.3755213,59500
1500,ENS Ulm Etranger,2.3451689,48.8422058,75005
1501,ENS Cachan Etranger,2.1649417,48.7123564,91190
1502,ENS Lyon Etranger,4.8334497,45.7332787,69342
1503,commun Mines-Ponts PC,2.3358177,48.8304214,75014
1504,CENTRALE PARIS Etranger,2.1661629,48.709445,91190
1505,CENTRALE PARIS Cycle International,2.1661629,48.709445,91190
1506,Supélec PC,2.1661629,48.709445,91190
1507,SUPELEC-Campus Gif Etranger,2.1661629,48.709445,91190
1508,SUPELEC-Campus Metz Etranger,6.220958,49.10323289999999,57070
1509,SUPELEC-Campus Rennes Etranger,-1.6234012,48.1252316,35510
1510,Supélec étr. PC,2.1661629,48.709445,91190
1511,SUPELEC-Campus Gif Cycle International,2.1661629,48.709445,91190
1512,SUPELEC-Campus Metz Cycle International,6.220958,49.10323289999999,57070
1513,SUPELEC-Campus Rennes Cycle International,-1.6234012,48.1252316,35510
1514,Supélec CI PC,2.1661629,48.709445,91190
1515,CENTRALE LYON Cycle international,4.766499899999999,45.7825983,69134
1516,ECOLE SUPERIEURE D'OPTIQUE Etranger,2.2034927,48.71373999999999,91120
1517,CENTRALE LILLE Cycle International,3.1365135,50.6068158,59650
1518,ENSIACET Toulouse G. Pro. Inf,1.5010751,43.5548178,31030
1519,CCP PC-Physique,,,
1520,ENSIACET Toulouse Mat. Procédés,1.5010751,43.5548178,31030
1521,CCP PC-Chimie,2.3475905,48.8412746,75005
1522,ENSIT PC,10.1796762,36.7847846,1008
1523,ECOLE NAVALE Brest Etranger,-4.4246113,48.28053389999999,29160
1524,ENGEES PC,7.758007800000001,48.5849696,67070
1525,ENSGI Grenoble,5.733431299999999,45.1603572,38000
1526,ENSG Marne la Vallée Fonctionnaire,2.5879613,48.8410851,77420
1527,ENTM ¥Militaire Lyon,4.835659,45.764043,69002
1528,Concours Commun TPE/EIVP,2.3819219,48.8740846,75019
1529,"Concours INT,ESIEE,ISMEA,MATMECA",-0.6051667,44.80663759999999,33400
1530,ENSSAT Lannion EEI,-3.4624262,48.729673,22305
1531,ENSIL Limoges ETI,1.2952454,45.86102899999999,87280
1532,ESIGEC PC,1.0768848,49.3832749,76800
1533,ESIP Poitiers AGE,0.340375,46.58022400000001,86000
1534,ESIP Poitiers EAC,0.340375,46.58022400000001,86000
1535,ESIP Poitiers EI,0.340375,46.58022400000001,86000
1536,ESIP Poitiers MC-G-GC,0.340375,46.58022400000001,86000
1537,ESIP Poitiers TEN,0.340375,46.58022400000001,86000
1538,ESIP PC,2.4435873,48.7950367,94000
1539,ESSI Polytech' Nice-Sophia,7.0717782,43.6155521,06410
1540,IST Paris 6 Elec. Info,2.3522219,48.856614,75004
1541,IST Paris 6 Matériaux,2.3522219,48.856614,75004
1542,IST Paris 6 Sci.Terre,2.3522219,48.856614,75004
1543,POLYTECH Nantes INFO.,-1.5158639,47.2819356,44300
1544,Polytech PC,2.2968955,48.8058872,92320
1545,EISTI Cergy PC,2.0697464,49.0350546,95000
1546,ESTIT Lille,3.045104,50.63372589999999,59000
1547,HEI Lille,3.045104,50.63372589999999,59000
1548,ENS Ulm MPI Etranger,2.3451689,48.8422058,75005
1549,ENS Ulm Info. Etranger,2.3440392,48.8418322,75005
1550,ENS Cachan groupe MP,2.1649417,48.7123564,91190
1551,ENS Cachan groupe Info,2.1649417,48.7123564,91190
1552,ENS Cachan MP Etranger,2.1649417,48.7123564,91190
1553,ENS Cachan-Ker Lan Etranger,2.1649417,48.7123564,91190
1554,ENS Cachan groupe MP étr.,2.1649417,48.7123564,91190
1555,ENS Cachan Info. Etranger,2.1649417,48.7123564,91190
1556,ENS Cachan-Ker Lan Info. Etranger,2.1649417,48.7123564,91190
1557,ENS Cachan groupe Info étr,2.1649417,48.7123564,91190
1558,ENS Lyon MPI Etranger,4.8334497,45.7332787,69342
1559,ENS Lyon Info. Etranger,4.8334497,45.7332787,69342
1560,commun Mines-Ponts MP,2.3358177,48.8304214,75014
1561,Supélec MP,2.1661629,48.709445,91190
1562,Supélec étr. MP,2.1661629,48.709445,91190
1563,SUPELEC-Campus Metz Cycle international,6.220958,49.10323289999999,57070
1564,Supélec CI MP,2.1661629,48.709445,91190
1565,CENTRALE LYON Cycle International,4.766499899999999,45.7825983,69134
1566,CCP MP,2.3480128,48.8474424,75005
1567,ENSIT MP,10.1796762,36.7847846,1008
1568,ENGEES MP,7.758007800000001,48.5849696,67070
1569,"Concours (Matméca, INT, ESIEE ¥ Paris ,ISMEA)",-0.6051667,44.80663759999999,33400
1570,ESIGEC MP,2.2112917,48.7142971,91120
1571,ESINSA Polytech' Nice-Sophia,7.0717782,43.6155521,06410
1572,ESIP MP,2.4435873,48.7950367,94000
1573,Polytech MP,2.3577864,48.8462524,75005
1574,EISTI Cergy MP,2.0697464,49.0350546,95000
1575,commun A ENV,1.3841702,43.6019953,31300
1576,ENGEES G2E-BCST,7.758007800000001,48.5849696,67070
1577,EOST,7.7629271,48.5796176,67084
1578,Concours G2E,,,
1579,IST Paris 6 AGRAL,2.3522219,48.856614,75004
1580,Polytech-Eiffel BCPST,2.2112917,48.7142971,91120
1581,commun Mines-Ponts PT,2.3358177,48.8304214,75014
1582,commun ENSAM PT,2.3582236,48.8330427,75013
1583,CCP PT,-9.2233629,38.6998442,1449-039
1584,ENSIT PT,10.1796762,36.7847846,1008
1585,ENSIL Limoges MEI,1.2952454,45.86102899999999,87280
1586,ENSTIM PT,2.3582236,48.8330427,75013
1587,ESIGEC PT,2.2112917,48.7142971,91120
1588,ESIP PT,2.5874861,48.8393044,77420
1589,ESTP PT,2.3274027,48.79420529999999,94230
1590,IST Paris 6 PT,2.3522219,48.856614,75004
1591,EISTI Cergy PT,2.0697464,49.0350546,95000
1592,Polytech-Eiffel PT,2.3577864,48.8462524,75005
1593,ENS Cachan FIL. SCIEN-SI PSI,2.1649417,48.7123564,91190
1594,ENS Cachan FIL. SCIEN-SI Etranger,2.1649417,48.7123564,91190
1595,ENS Cachan FIL.SI PSI,2.1649417,48.7123564,91190
1596,ENS Cachan FIL.SI Etranger,2.1649417,48.7123564,91190
1597,commun Mines-Ponts PSI,,,
1598,Supélec PSI,2.1661629,48.709445,91190
1599,Supélec étr. PSI,2.1661629,48.709445,91190
1600,CCP PSI,,,
1601,ENSIT PSI,10.1796762,36.7847846,1008
1602,ENGEES PSI,7.758007800000001,48.5849696,67070
1603,ESTP PSI,4.0734615,48.2690048,10430
1604,ESIGEC PSI,1.0768848,49.3832749,76800
1605,ESIP PSI,2.4435873,48.7950367,94000
1606,Polytech PSI,2.3938746,48.8139882,94200
1607,commun Mines-Ponts TSI,2.3358177,48.8304214,75014
1608,commun ENSAM TSI,2.3582236,48.8330427,75013
1609,CCP TSI,2.2112917,48.7142971,91120
1610,ENSIT TSI,10.1796762,36.7847846,1008
1611,ENSIB TSI,2.3692752,48.8584136,75011
1612,ESTP TSI,4.0734615,48.2690048,10430
1613,Polytech TSI,2.3938746,48.8139882,94200
1614,ENS Cachan Paris-Saclay,2.1649417,48.7123564,91190
1615,IMT Lille Douai-ingénieur Mines Douai,3.0676659,50.3755213,59500
1616,ESIPE Créteil-Génie Biomédial et Santé (ISBS),2.4539208,48.7951184,94000
1617,IMT Atlantique ex Télécom Bretagne cursus Brest-Rennes-Toulouse,-1.5208446,47.2822842,44300
1618,IMT Atlantique ex Télécom Bretagne cursus Sophia,-1.5208446,47.2822842,44300
1619,IMT Atlantique-ingénieur Mines Nantes,-1.5208446,47.2822842,44300
1620,"ENSIL-ENSCI Limoges, Matériaux Céramiques",1.2952454,45.86102899999999,87280
1621,ESSTIN-Polytech Nancy,6.1883149,48.6597371,54519
1622,ESIPE Créteil-Systèmes d'information,2.4435873,48.7950367,94000
1623,Ecole des Mines Douai/ISPA Alençon,0.0587716999999999,48.4442826,61250
1624,ESTP Paris-Bâtiment (B) – campus de Troyes,4.0744009,48.2973451,10000
1625,ESTP Paris-Travaux Publics (TP),2.3522219,48.856614,75004
1626,UniLaSalle (Sciences de la Terre et Environnement),1.0730946,49.4674696,76130
1627,ISEN Ouest,-4.495553999999999,48.4070554,29200
1628,ISEN Méditerrannée,3.0487604,50.6342041,59800
1629,ENS Cachan Paris-Saclay PC,2.1649417,48.7123564,91190
1630,EEIGM Nancy-Groupe INP,6.1934152,48.6955015,54000
1631,ENSGSI Nancy-Groupe INP,6.1936569,48.6949818,54000
1632,SUPELEC-Campus Gif (apprentissage) TSI,2.1661629,48.709445,91190
1633,SUPELEC-Campus Metz TSI,6.220958,49.10323289999999,57070
1634,SUPELEC-Campus Rennes TSI,-1.6234012,48.1252316,35510
1635,IMT Lille Douai-ingénieur Télécom Lille,2.2003541,48.712841,91120
1636,ENS Cachan Paris-Saclay MP,2.1649417,48.7123564,91190
1637,ENS Cachan Paris-Saclay Info.,2.1649417,48.7123564,91190
1638,CentraleSupélec-Campus Gif,2.1661629,48.709445,91190
1639,UniLaSalle Beauvais,2.0677276,49.460984,60000
1640,ISEN Ouest (Brest),-4.495553999999999,48.4070554,29200
1641,ISEN Méditerrannée Campus Toulon,5.9396605,43.1206202,83000
1642,ISEN Méditerrannée Campus Nîmes,4.3685006,43.8212608,30000
1643,CentraleSupélec-Campus Gif-étr.,2.1661629,48.709445,91190
1644,CentraleSupélec-Campus Gif-CI,2.1661629,48.709445,91190
1645,Lorraine INP-ENSG,6.1342988,48.6543335,54500
1646,Polytech Sorbonne-Informatique et mathématiques appliquées,2.3577864,48.8462524,75005
1647,ENSAIS PLASTURGI,7.764898400000001,48.5823052,67000
1648,ESIEE Noisy Le Grand,2.55261,48.848579,93160
1649,ISMRA Caen,-0.370679,49.182863,14000
1650,ENSHMG,5.7031278,45.2029611,38031
1651,ENSIE Grenoble,5.768265899999999,45.1934574,38400
1652,CESTI Paris,2.3325672,48.9195721,93400
1653,CESTI Toulon,5.928,43.124228,83800
1654,ENSEEIH Genie Elec.,1.455808,43.6021194,31000
1655,ENSEEIH electronique,1.455808,43.6021194,31000
1656,EIT Tours,0.6847464999999999,47.3646921,37200
1657,ENTPE Fonc,4.9223494,45.77860829999999,69120
1658,ESEM Orleans,1.9390229,47.8440593,45100
1659,ENS (Paris) MPI,2.3451689,48.8422058,75005
1660,ENS (Paris) INFO,2.3451689,48.8422058,75005
1661,Concours ENS Cachan,2.1649417,48.7123564,91190
1662,ENS Lyon Maths.,4.8334497,45.7332787,69342
1663,Supélec Etrangers MP,2.1661629,48.709445,91190
1664,Supélec Cycle Int. MP,2.1661629,48.709445,91190
1665,ENTPE etranger,4.9223494,45.77860829999999,69120
1666,ENSTIM Fonctionnaire Douai,3.080602,50.367874,59508
1667,Concours Communs TPE,,,
1668,Concours TELECOM INT,2.4433504,48.6249477,91000
1669,EIVP Fonctionnaire Paris,2.3819219,48.8740846,75019
1670,Concours EIVP,2.3819219,48.8740846,75019
1671,ENSAI Rennes civil Math,-1.7417817,48.05062059999999,35170
1672,ENSAI Rennes fonct.ionnaire éco,-1.7417817,48.05062059999999,35170
1673,ENSAI Rennes civil éco,-1.7417817,48.05062059999999,35170
1674,ENSAI Rennes fonctionnaire math,-1.7417817,48.05062059999999,35170
1675,ENSERG-ENSIMAG:Telecom,5.768265899999999,45.1934574,38400
1676,ENSEEIH informatique,1.455808,43.6021194,31000
1677,ENSEEIH hydraulique,1.455808,43.6021194,31000
1678,ENSEEIH Telecom.rese,1.455808,43.6021194,31000
1679,Ecole Navale Brest étr.,-4.4246113,48.28053389999999,29160
1680,ENGEES Fonct Strasbo,7.758007800000001,48.5849696,67070
1681,ENGEES Civil Strasb,7.758007800000001,48.5849696,67070
1682,ESTIT V.D,3.0771967630878336,50.6299721993165,59000
1683,E3I Tours,-71.0494215,42.3631908,02110
1684,ENSIAME MP,3.5147174,50.3248476,59300
1685,ENSSAT Lannion Optro,-3.4624262,48.729673,22305
1686,ESPEO Orleans,1.9390229,47.8440593,45100
1687,IST Paris6 SETI,2.3522219,48.856614,75004
1688,Polytech Mars. SE,2.3577864,48.8462524,75005
1689,POLYTECH Nantes SILR,-1.5158639,47.2819356,44300
1690,POLYTECH Nantes MP,-1.5158639,47.2819356,44300
1691,EUDIL GIS,3.1370078,50.6078394,59655
1692,EUDIL GeoTech GCivil,2.372661,48.842813,75012
1693,EUDIL Info Mes Auto,3.0771967630878336,50.6299721993165,59000
1694,EUDIL ITEC,2.339691,48.85358249999999,75006
1695,EUDIL CM,3.1370078,50.6078394,59655
1696,EUDIL Sc Materiaux,3.1370078,50.6078394,59655
1697,ISTG-Geotec,5.0943301,47.3165536,21800
1698,ISTG 3I,5.721307075804626,45.1970415,38000
1699,ISTG-PRIHSE,5.717421499999999,45.190758,38031
1700,ISTG-RICM,-71.4981351,41.5792126,02852
1701,ISTG Grenoble SciGMa,5.752253,45.1846156,38400
1702,ISTG Tech info sante,-71.2233992,46.826998,G1J 2R6
1703,ENS CACHAN FIL SCIEN,2.1649417,48.7123564,91190
1704,ENS CACHAN FIL SCIEN etranger,2.1649417,48.7123564,91190
1705,Supélec etrangers PSI,2.1661629,48.709445,91190
1706,ENTPE Etranger,4.9223494,45.77860829999999,69120
1707,ENSTIM Fonc. Douai,3.0676659,50.3755213,59500
1708,EIGIP PSI,30.8846931,29.903635,12581
1709,POLYTECH,-75.5461763,39.0719698,19980
1710,RÚseau Eiffel PSI,2.2944813,48.85837009999999,75007
1711,AUTRES ECOLES DE LA BANQUE E4A,,,
1712,INA P-G Paris,2.3476575,48.8397733,75005
1713,ENSAM Montpellier,3.8569411,43.636483,34090
1714,ENITAC Clermont Ferr,3.1762589,45.7758304,63370
1715,BIO A,2.444786,48.718247,91230
1716,PC BIO A,2.1553561,48.9027578,78400
1717,ENGEES Fonctionnaire Strasbourg,7.758007800000001,48.5849696,67070
1718,ENGEES Civil Strasbourg,7.758007800000001,48.5849696,67070
1719,ENGEES Stra.,7.758007800000001,48.5849696,67070
1720,IAAL Lille,35.9123736,34.3622667,1304
1721,ENS Paris etranger,2.3451689,48.8422058,75005
1722,Supélec Cycle Int. PC,2.1661629,48.709445,91190
1723,ESTIT V.D'ASCQ,3.1306181,50.6192151,59650
1724,EIGIP PC,2.3065191,48.8714859,75008
1725,IST Paris6 CM,2.3522219,48.856614,75004
1726,Supelec PT,2.1661629,48.709445,91190
1727,EIGIP Valenciennes PT,3.518332,50.357113,59300
1728,RÚseau Eiffel PT,,,
1729,IMT Atlantique,-1.5208446,47.2822842,44300
1730,TELECOM Paris,2.2004477,48.7128764,91120
1731,Institut Mines-Télécom Business School (IMT-BS),2.4429366,48.6251574,91000
1732,CY TECH Cergy-Génie Civil,2.0697464,49.0350546,95000
1733,CY TECH Cergy-Pau-Informatique,2.0697464,49.0350546,95000
1734,CY TECH Cergy-Pau-Mathématiques,2.0697464,49.0350546,95000
1735,ISAE-Supméca Paris,2.3325672,48.9195721,93400
1736,ENSIL-ENSCI Limoges Eau,1.2952454,45.86102899999999,87280
1737,ENSIBS,-3.396421,47.7477796,56100
1738,EPISEN-Génie Biomédical et santé (ISBS),2.4435873,48.7950367,94000
1739,EPISEN-Système d'information,2.4435873,48.7950367,94000
1740,EPISEN-Technologie pour la santé,2.4435873,48.7950367,94000
1741,ESIR Rennes-Technologies de l'information pour la santé,-1.6364057,48.118086,35042
1742,ESIR Rennes-Matériaux,-1.6364057,48.118086,35042
1743,ESIR Rennes-Informatique,-1.6364057,48.118086,35042
1744,ESIX Cherbourg GSI,-1.6442149,49.6343438,50130
1745,ESIX Caen Mécatronique et Systèmes Embarqués,-1.6442149,49.6343438,50130
1746,Polytech Annecy-Chambéry-Bâtiment Eco-construction Energie,6.1577674,45.91949779999999,74940
1747,Polytech Annecy-Chambéry-Ecologie industrielle et territoriale,6.1577674,45.91949779999999,74940
1748,Polytech Annecy-Chambéry-Mécanique Mécatronique Matériaux composites,6.1577674,45.91949779999999,74940
1749,Polytech Annecy-Chambéry-Systèmes Numériques – Instrumentation,6.1577674,45.91949779999999,74940
1750,Polytech Lille-Informatique et statistique,3.1370078,50.6078394,59655
1751,Polytech Lille-Génie civil,3.1370078,50.6078394,59655
1752,Polytech Lille-Instrumentation et ingénierie d'affaires,3.1370078,50.6078394,59655
1753,Polytech Lille-Systèmes embarqués,3.1370078,50.6078394,59655
1754,"Polytech Nancy Informatique, Automatique, Robotique, Réseaux",6.1883149,48.6597371,54519
1755,Polytech PARIS SACLAY Electronique et Systèmes Robotisés,2.1712321,48.70902239999999,91190
1756,ELISA Aerospace Bordeaux,3.2871557,49.8493814,02100
1757,ELISA Aerospace Hauts de France,3.2871557,49.8493814,02100
1758,ESEO Angers-Paris-Dijon,-0.5510644,47.4928835,49100
1759,HEI LILLE,3.045104,50.63372589999999,59000
1760,ISEN Méditerrannée-Nîmes,4.3685006,43.8212608,30000
1761,ISEN Méditerrannée-Toulon,5.9396605,43.1206202,83000
1762,ESIEE Amiens-UniLaSalle,2.2919749,49.8995592,80080
1763,INSA Hauts de France Electronique des Systèmes Embarqués,3.5147174,50.3248476,59300
1764,INSA Hauts de France Informatique Industrielle et Automatique,3.5147174,50.3248476,59300
1765,INSA Rouen Normandie Informatique et technologie de l'information,1.0683257,49.3849757,76800
1766,EPITA campus Toulouse,2.3628171,48.81566540000001,94270
1767,EPITA campus Lyon,2.3628171,48.81566540000001,94270
1768,EPITA campus Rennes,2.3628171,48.81566540000001,94270
1769,EPITA campus Strasbourg,2.3628171,48.81566540000001,94270
1770,EPITA campus Paris,2.3628171,48.81566540000001,94270
1771,ESME SUDRIA,2.3929998,48.8140771,94200
1772,Bordeaux INP-ENSEGID,-0.6079880999999999,44.8048063,33600
1773,ESIX Caen Agroalimentaire,-1.6442149,49.6343438,50130
1774,CY TECH Cergy-Biotechnololgie,2.0697464,49.0350546,95000
